id,zone,moh_regional_estate,moh_phpc,pcr,healthier_sg,clinic_code,clinic_name,block,road_name,unit_number,building_name,postal_code,telephone,hours_weekday,hours_saturday,hours_sunday,hours_holiday,remarks,full_address,country
1,Central,Alexandra,False,False,True,7086AGP,Straits Clinic Anchorpoint,370,Alexandra Rd,#B1-41,Anchorpoint Shopping Centre,,69901819,Mon - Thurs 9.00am - 2.45pm 5.30pm - 8.30pm Fri 9.00am - 2.45pm,9.00am - 12.45pm 2.00pm - 4.45pm,9.00am - 12.45pm,9.00am - 12.45pm,,370 Alexandra Rd #B1-41 Anchorpoint Shopping Centre,Singapore
2,Central,Balestier,True,True,True,5020AGP,Chiron Medical Clinic,3,St. George's Road,#01-95,,,62914963,8.30am - 12.30pm 6.30pm - 9.00pm,8.30am - 12.30pm,8.30am - 12.30pm,Closed,,3 St. George's Road #01-95,Singapore
3,Central,Balestier,True,True,True,4021AGP,Heartland Health (Whampoa Drive),87,Whampoa Drive,#01-869,,,62521070,7.00am - 12.00am,7.00am - 12.45pm 6.00pm - 10.45pm,7.00am - 12.45pm 6.00pm - 10.45pm,7.00am - 12.45pm 6.00pm - 10.45pm,,87 Whampoa Drive #01-869,Singapore
4,Central,Balestier,True,True,True,5216AGP,My Family Clinic (St George),2,St George's Road,,,,62922128,8.00am - 12.30pm 1.30pm - 3.30pm 6.00pm - 9.00pm (Evening sessions on Mon and Tues),8.00am - 12.30pm,Closed,Closed,Clinic surcharge applicable,2 St George's Road,Singapore
5,Central,Balestier,True,True,True,7144AGP,Mydoctor @ Balestier,360,Balestier Road,#01-01,Shaw Plaza Twin Heights,,69048264,8.30am - 12.30pm 2.00pm - 5.00pm 6.00pm - 9.00pm,8.30am - 12.30pm,8.30am - 12.30pm,Closed,,360 Balestier Road #01-01 Shaw Plaza Twin Heights,Singapore
6,Central,Balestier,True,False,True,4826AGP,Plushealth Medical Clinic & Surgery,89,Whampoa Drive,#01-841,,,62647845,8.30am - 12.30pm 2.00pm - 4.30pm 6.00pm - 9.00pm (Closed on Friday Night),9.00am - 1.00pm,9.00am - 1.00pm,Closed,,89 Whampoa Drive #01-841,Singapore
7,Central,Bishan,True,False,True,1129AGP,Aspen Clinic Pte Ltd,283,Bishan Street 22,#01-185,,,64553829,9.00am - 12.30pm 2.00pm - 4.30 pm 7.00pm - 9.00pm (Closed on Tues & Fri night),9.00am - 12.30pm,Closed,Closed,,283 Bishan Street 22 #01-185,Singapore
8,Central,Bishan,True,False,True,7280AGP,Harmony Health Clinic & Surgery,23,Sing Ming Road,#01-27,,,69708098,9.00am - 9.00pm,9.00am - 9.00pm,9.00am - 9.00pm,9.00am - 9.00pm,,23 Sing Ming Road #01-27,Singapore
9,Central,Bishan,True,True,True,1544AGP,Healthcare Family Clinic & Surgery,403,Sin Ming Ave,#01-311,,,64542373,8.30am - 12.00pm 2.30pm - 4.00pm 7.30pm - 9.00pm (Closed on Thurs & Fri Nights),9.00am - 12.00pm,Closed,Closed,,403 Sin Ming Ave #01-311,Singapore
10,Central,Bishan,True,True,True,5133AGP,P Tan Family Medicine Clinic,503,Bishan St 11,#01-464,,,62557545,"Mon, Tue & Thurs 9.00am - 12.30pm 2.00pm - 4.30pm 6.00pm - 8.00pm Wed & Fri 9.00am - 12.30pm 2.00pm - 5.30pm",9.00am - 12.30pm,Closed,Closed,,503 Bishan St 11 #01-464,Singapore
11,Central,Boon Keng,True,True,True,1593AGP,Healthway Medical (Boon Keng),101,Towner Road,#01-236,,,62977592,8.00am - 1.00pm 2.00pm - 5.00pm,8.00am - 1.00pm,Closed,Closed,,101 Towner Road #01-236,Singapore
12,Central,Boon Keng,False,False,True,4845AGP,I-Health Medical Clinic,30,Bendemeer Road,#01-883,,,62911371,8.30am - 2.00pm 5.00pm - 10.00pm,8.30am - 2.00pm,5.00pm - 10.00pm,8.30am - 2.00pm 5.00pm - 10.00pm,Clinic surcharge applicable,30 Bendemeer Road #01-883,Singapore
13,Central,Boon Keng,False,False,False,7329AGP,Lion Health Clinic & Surgery (Boon Keng),101,Towner Rd,#01-218,,,62983212,8.00am - 2.00pm 5.00pm - 11.00pm,8.00am - 2.00pm 5.00pm - 11.00pm,8.00am - 2.00pm 5.00pm - 11.00pm,8.00am - 2.00pm 5.00pm - 11.00pm,Clinic surcharge applicable,101 Towner Rd #01-218,Singapore
14,Central,Boon Keng,False,False,True,2031AGP,Pariqua Clinic,47,Bendemeer Road,#01-1463,,,62921351,8.30am - 12.00pm 2.00pm - 4.30pm 7.00pm - 9.00pm,8.30am - 12.00pm,Closed,Closed,,47 Bendemeer Road #01-1463,Singapore
15,Central,Boon Keng,True,False,True,2313AGP,Tan Teoh Clinic & Surgery (Towner),101,Towner Road,#01-216,,,62992292,8.30am - 12.30pm 2.00pm - 6.00pm 7.00pm - 9.00pm,8.30am - 12.30pm 2.00pm - 4.00pm,8.30am - 12.00pm,8.30am - 12.00pm,,101 Towner Road #01-216,Singapore
16,Central,Boon Keng,True,False,True,7335AGP,The Family Clinic @ Towner,34,Whampoa W,#01-55,,,69081180,9.00am - 1.00pm 2.00pm - 6.00pm,9.00am - 1.00pm,Closed,Closed,,34 Whampoa W #01-55,Singapore
17,Central,Bugis,True,True,True,1273AGP,Bethesda Medical @ Beach Rd,152,Beach Road,#03-08,Gateway East,,62995398,8.30am - 12.30pm 2.00pm - 5.00pm,Closed,Closed,Closed,,152 Beach Road #03-08 Gateway East,Singapore
18,Central,Bugis,False,False,True,7274AGP,Minmed Health (Bugis),200,Victoria St,#02-42,Bugis Junction,,89500123,9.00am - 1.00pm 2.00pm - 5.00pm 6.00pm - 9.00pm,9.00am - 1.00pm,9.00am - 1.00pm,Closed,,200 Victoria St #02-42 Bugis Junction,Singapore
19,Central,Bugis,True,True,True,2032AGP,Parklane Medical Centre,35,Selegie Road,#02-25A,Parklane Shopping Mall,,63346778,9.00am - 1.00pm 2.00pm - 6.00pm,9.00am - 2.00pm,Closed,Closed,,35 Selegie Road #02-25A Parklane Shopping Mall,Singapore
20,Central,Bugis,False,False,True,7241AGP,Pinnacle Family Clinic (DUO Galleria),7,Fraser Street,#B3-12,DUO Galleria,,63223488,9.00am - 1.00pm 2.00pm - 5.00pm,Closed,Closed,Closed,,7 Fraser Street #B3-12 DUO Galleria,Singapore
21,Central,Bugis,True,False,True,2342AGP,Textile Centre Clinic,200,Jalan Sultan,#03-32,Textile Centre,,62982400,9.00am - 11.00am 2.00pm - 4.00pm,Closed,Closed,Closed,,200 Jalan Sultan #03-32 Textile Centre,Singapore
22,Central,Bugis,True,True,True,4077AGP,Town Clinic,287,Beach Road,#01-00,,,62981456,9.00am - 1.00pm 2.30pm - 5.00pm,9.00am - 1.00pm,Closed,Closed,,287 Beach Road #01-00,Singapore
23,Central,Bukit Merah,True,True,True,7270AGP,Bukit Merah Family Clinic,133,Jalan Bukit Merah,#01- 1516,,,65130103,8.00am - 1.30pm,Closed,8.00am - 12.30pm,Closed,Clinic surcharge applicable,133 Jalan Bukit Merah #01- 1516,Singapore
24,Central,Bukit Merah,True,False,True,1363AGP,"Drs Koo, Koh & Associates Pte Ltd",163,Bukit Merah Central,#01-3609,,,62712395,8.30am - 1.30pm 2.30pm - 4.30pm 7.00pm - 9.00pm (Closed on Thurs & Fri night),9.00am - 12.30pm,Closed,Closed,,163 Bukit Merah Central #01-3609,Singapore
25,Central,Bukit Merah,False,False,False,1856AGP,Mao Medical Centre & Surgery,149,Silat Ave,#01-54,,,62781910,9.00am - 12.30pm 2.00pm - 4.30pm 6.30pm - 8.30pm,9.00am - 12.30pm,9.00am - 12.30pm,"9.00am - 12.30pm (Closed on Christmas, New Year Day, CNY 1st & 2nd Day, Labour Day & National Day)",,149 Silat Ave #01-54,Singapore
26,Central,Farrer Park,True,True,True,5197AGP,Edgedale Medical Clinic (Cambridge),40,Cambridge Road,#01-115,,,62921088,9.00am - 12.00pm,Closed,Closed,Closed,,40 Cambridge Road #01-115,Singapore
27,Central,Farrer Park,True,True,True,7207AGP,Healthway Medical (King George's Avenue),803,King George's Ave,#01-144,,,62939883,Mon-Wed 8.30am - 12.30pm 2.00pm - 4.30pm Thurs Closed Fri 8.30am - 12.30pm,8.30am - 12.30pm,Closed,Closed,,803 King George's Ave #01-144,Singapore
28,Central,Farrer Park,True,True,True,4025AGP,HMI Medical Centre (GP),12,Farrer Park Station Rd,#01-01,,,63226333,8.00am - 1.00pm 2.00pm - 5.00pm,8.00am - 12.30pm,Closed,Closed,,12 Farrer Park Station Rd #01-01,Singapore
29,Central,Farrer Park,False,False,True,7205AGP,Minmed Clinic (Farrer Park),180,Kitchener Road,#01-17,City Square Mall,,87490123,9.00am - 1.00pm 2.00pm - 5.00pm 6.00pm - 9.00pm,9.00am - 1.00pm,9.00am - 1.00pm,9.00am - 1.00pm 2.00pm - 5.00pm,Clinic surcharge applicable,180 Kitchener Road #01-17 City Square Mall,Singapore
30,Central,Farrer Park,True,True,True,4273AGP,Q & M Medical & Aesthetic Clinic (Farrer Park),180,Kitchener Road,#B2-13/14,City Square Mall,,65099558,10.00am - 1.00pm 2.00pm - 6.00pm,10.00am - 1.00pm 2.00pm - 6.00pm,Closed,Closed,Clinic surcharge applicable,180 Kitchener Road #B2-13/14 City Square Mall,Singapore
31,Central,Farrer Park,True,True,True,4831AGP,Tayka Medical,29A,Desker Road,,,,63924473,10.00am - 10.00pm,2.00pm - 10.00pm,2.00pm - 10.00pm,2.00pm - 10.00pm,,29A Desker Road,Singapore
32,Central,Harbourfront,True,True,True,4028AGP,Chung & Ee Medical Clinic,10,Telok Blangah Crescent,#01-151,,,69963782,9.00am - 1.00pm (Except wed) 3.00pm-5.30pm(Except Wed) 6.30pm-8.00pm(Except Wed) 9.00am - 1.00pm (Wed only),9.00am - 1.00pm,Closed,Closed,,10 Telok Blangah Crescent #01-151,Singapore
33,Central,Harbourfront,True,True,True,1347AGP,Drs Bain & Partners (Harbourfront),1,Harbourfront Ave,#07-06,Keppel Bay Tower,,62717110,8.30am - 1.00pm 2.00pm - 5.00pm,8.30am - 1.00pm,Closed,Closed,,1 Harbourfront Ave #07-06 Keppel Bay Tower,Singapore
34,Central,Holland,True,False,True,7298AGP,Beacon Medical Clinic Jelita,293,Holland Rd,#02-14,Jelita Mall,,65504438,"Mon, Tue & Thur 9.00am – 12.45pm 2.00pm – 4.45pm 6.00pm – 8.40pm Wed & Fri 9.00am – 12.45pm 2.00pm – 4.45pm",9.00am - 12.45pm,Closed,Closed,,293 Holland Rd #02-14 Jelita Mall,Singapore
35,Central,Holland,False,False,False,7325AGP,Keystone Clinic & Surgery (Ghim Moh),19,Ghim Moh Rd,#01-253,,,60470339,8.00am - 8.00pm,8.00am - 8.00pm,8.00am - 8.00pm,8.00am - 8.00pm,Clinic surcharge applicable,19 Ghim Moh Rd #01-253,Singapore
36,Central,Holland,False,False,True,7235AGP,Minmed Clinic (Holland Village),7,Holland Village Way,#03-05,One Holland Village,,87510123,9.00am - 1.00pm 2.00pm - 5.00pm 6.00pm - 9.00pm,9.00am - 1.00pm,9.00am - 1.00pm,Closed,Clinic surcharge applicable,7 Holland Village Way #03-05 One Holland Village,Singapore
37,Central,Holland,False,False,False,2141AGP,Ridgewood Medical Clinic,5,Ridgewood Close,,Ridgewood Condominium,,64691666,Mon & Wed 9.30am - 12.30pm 3.00pm - 5.00pm Tue & Thurs Closed Fri 9.30am - 12.30pm 3.00pm - 4.30pm,9.30am - 12.30pm,Closed,Closed,,5 Ridgewood Close Ridgewood Condominium,Singapore
38,Central,Holland,True,True,True,2452AGP,Victory Clinic & Surgery Pte Ltd,21,Ghim Moh Road,#01-205,Ghim Moh Gardens,,64671641,8.00am - 4.00pm 6.00pm -9.00pm,8.30am - 1.00pm,8.30am - 1.00pm,Closed,Clinic surcharge applicable,21 Ghim Moh Road #01-205 Ghim Moh Gardens,Singapore
39,Central,Novena,True,True,True,4014AGP,Fema Clinic & Surgery,10,Sinaran Drive,#09-32,Novena Square 2,,64451936 68543720,9.00am - 5.00pm,9.00am - 12.00pm,Closed,Closed,,10 Sinaran Drive #09-32 Novena Square 2,Singapore
40,Central,Novena,True,True,True,1583AGP,Healthway Medical (Novena Medical Centre),10,Sinaran Drive,#09-36,Novena Medical Centre,,63528696,8:30am - 12:30pm 2:00pm - 5.30pm,9:00am - 1:00pm,Closed,Closed,,10 Sinaran Drive #09-36 Novena Medical Centre,Singapore
41,Central,Novena,True,False,True,2309AGP,Lily Neo Clinic,101,Irrawaddy Road,#19-10,,,64726226,9.00am - 1.00pm 2.30pm - 4.30pm,9.30am-1.00pm,Closed,Closed,,101 Irrawaddy Road #19-10,Singapore
42,Central,Novena,False,False,True,7215AGP,Minmed Clinic (Novena),101,Thomson Rd,#02-08,United Square,,87790123,9.00am - 1.00pm 2.00pm - 5.00pm 6.00pm - 9.00pm,9.00am - 1.00pm,9.00am - 1.00pm,Closed,Clinic surcharge applicable,101 Thomson Rd #02-08 United Square,Singapore
43,Central,Novena,True,False,False,7316AGP,N B Tham Clinic Pte Ltd,8,Whampoa Dr,,,,62880739,Mon - Fri 8.30am - 12.30pm 1.30pm - 4.30pm,8.30am - 12.30pm,Closed,Closed,,8 Whampoa Dr,Singapore
44,Central,Novena,True,True,True,7208AGP,Phoenix Medical Group (Novena),275,Thomson Rd,#01-05,Novena Regency,,62543862,9.00am - 2.30pm 6.00pm - 8.30pm,9.00am - 1.30pm,2.00pm - 8.30pm,Closed,,275 Thomson Rd #01-05 Novena Regency,Singapore
45,Central,Novena,False,False,False,2388AGP,The Rafflesian Clinic & Surgery (By Appointment Only) (Clinic is not seeing new patients till further notice),10,Sinaran Drive,#11-06,Novena Medical Centre,,63382740,9.00am - 12.00pm 2.00pm - 4.00pm,Closed,Closed,Closed,,10 Sinaran Drive #11-06 Novena Medical Centre,Singapore
46,Central,Orchard,True,True,False,5045AGP,A&G Medical,1,Scotts Road,#20-11/13,Shaw Centre,,63223631,9.00am - 1.00pm 2.00pm - 5.00pm,9.00am - 1.00pm,Closed,Closed,,1 Scotts Road #20-11/13 Shaw Centre,Singapore
47,Central,Orchard,False,False,False,7005AGP,Atlas Associates Clinic,1,Grange Rd,#10-11,Orchard Building,,69566577,8.30am - 1.30pm 2.30pm - 5.30pm,9.00am - 1.00pm,Closed,Closed,,1 Grange Rd #10-11 Orchard Building,Singapore
48,Central,Orchard,True,False,True,1253AGP,Chong's Medical Centre,190,Clemenceau Ave,#01-29/30,Singapore Shopping Centre,,63383297,9.00am - 12.30pm 2.00pm - 5.00pm,9.00am - 12.30pm,Closed,Closed,,190 Clemenceau Ave #01-29/30 Singapore Shopping Centre,Singapore
49,Central,Orchard,False,False,False,1319AGP,Doctor Jay Medical Centre,115,Killiney Road,,,,62355196,10.00am - 3.30pm 6.30pm - 8.30pm,9.30am - 12.00pm 6.30pm - 8.30pm,6.30pm - 8.30pm,Closed,,115 Killiney Road,Singapore
50,Central,Orchard,True,False,True,2848AGP,Dr Kevin Chua Medical & Aesthetics,360,Orchard Road,#03-05,Mount Elizabeth Medical Centre,,66946700,10.00am - 3.00pm,Closed,Closed,Closed,,360 Orchard Road #03-05 Mount Elizabeth Medical Centre,Singapore
51,Central,Orchard,False,False,True,5668AGP,Minmed Clinic (Orchard),290,Orchard Road,#16-04,Paragon Tower 1,,87500123,9.00am - 5.00pm,Closed,Closed,Closed,,290 Orchard Road #16-04 Paragon Tower 1,Singapore
52,Central,Orchard,True,True,True,5096AGP,Minmed Health Screeners,290,Orchard Road,#16-10,Paragon,,87500123,9.00am - 1.00pm 2.00pm - 5.00pm,Closed,Closed,Closed,,290 Orchard Road #16-10 Paragon,Singapore
53,Central,Orchard,True,True,True,1963AGP,Newcastle Clinic,541,Orchard Road,#18-02A,Liat Towers,,67362322,9.00am - 5.30pm,9.00am - 1.00pm,Closed,Closed,,541 Orchard Road #18-02A Liat Towers,Singapore
54,Central,Orchard,False,False,False,3349AGP,Point Medical Group (Paragon) (By appointment only),290,Orchard Road,#11-04/05,Paragon Medical Tower Lift Lobby 1,,62656587,"8.30am - 12.30pm 2.00pm - 4.00pm (Mon, Wed & Fri Only)",8.30am - 12.30pm,Closed,Closed,,290 Orchard Road #11-04/05 Paragon Medical Tower Lift Lobby 1,Singapore
55,Central,Orchard,True,False,True,2071AGP,Prime Medical Group,290,Orchard Road,#18-01,The Paragon,,67328096,9.00am - 1.00pm 2.00pm - 5.00pm,9.00am - 1.00pm,Closed,Closed,,290 Orchard Road #18-01 The Paragon,Singapore
56,Central,Queenstown,True,True,True,7247AGP,171 Stirling Family Clinic,171,Stirling Rd,#01-1101,,,62506551,8.30am - 12.30pm 6.00pm - 9.00pm,8.30am - 12.30pm,Closed,Closed,,171 Stirling Rd #01-1101,Singapore
57,Central,Queenstown,False,False,True,5763AGP,94 Dawson Family Clinic,94A,Dawson Road,#01-01,,,69041729,8.30am - 1.00pm 2.00pm - 4.30pm 6.00pm - 10.00pm,9.00am - 12.00pm,6.00pm - 10.00pm,Closed,Clinic surcharge applicable,94A Dawson Road #01-01,Singapore
58,Central,Queenstown,False,False,True,7183AGP,Bethesda Medical @ Margaret,38,Margaret Drive,#02-03,,,63223886,8.30am - 1.00pm 2.00pm - 5.30pm,8.30am - 1.00pm,Closed,Closed,,38 Margaret Drive #02-03,Singapore
59,Central,Queenstown,False,False,True,7212AGP,Virtue Medical Clinic (Mei Ling),158,Mei Ling St,#01-92,,,69098577,8.00am - 1.00pm 5.30pm - 9.30pm,9.00am - 1.00pm,9.00am - 1.00pm 6.00pm - 9.00pm,Closed,Clinic surcharge applicable,158 Mei Ling St #01-92,Singapore
60,Central,Redhill,True,True,True,3777AGP,Heartland Health (Redhill),86,Redhilll Close,#01-600,,,68733165,8.00am - 12.45pm 6.00pm - 10.45pm,8.00am - 12.45pm 6.00pm - 10.45pm,8.00am - 12.45pm 6.00pm - 10.45pm,8.00am - 12.45pm 6.00pm - 10.45pm,,86 Redhilll Close #01-600,Singapore
61,Central,Redhill,False,False,True,7119AGP,Minmed Clinic (Redhill),12,Alexandra View,#01-16,ARTRA,,88150123,9.00am - 1.00pm 2.00pm - 5.00pm 6.00pm - 9.00pm,9.00am - 1.00pm,9.00am - 1.00pm,9.00am - 1.00pm 2.00pm - 5.00pm,Clinic surcharge applicable,12 Alexandra View #01-16 ARTRA,Singapore
62,Central,Redhill,True,False,True,4976AGP,Redwood Clinic and Surgery,920,Redhill MRT Station,#01-07,,,62512193,8.00am - 1.00pm 2.00pm - 10.00pm Thursday &Fri : 2pm-6pm (Closed on Tuesday),9.30am - 1.30pm,9.30am - 1.30pm,Closed,,920 Redhill MRT Station #01-07,Singapore
63,Central,River Valley,False,False,True,7174AGP,Minmed Clinic (River Valley),1,Kim Seng Promenade,#B2-128,Great World City,,88170123,9.00am - 1.00pm 2.00pm - 5.00pm 6.00pm - 9.00pm,9.00am - 1.00pm,9.00am - 1.00pm,Closed,Clinic surcharge applicable,1 Kim Seng Promenade #B2-128 Great World City,Singapore
64,Central,River Valley,True,True,True,2447AGP,Pinnacle Family Clinic (River Valley),240,River Valley Road,,,,68366986,8.30am - 1.00pm 2.00pm - 5.00pm,9.00am - 1.00pm,9.00am - 12.00pm,Closed,,240 River Valley Road,Singapore
65,Central,River Valley,True,True,True,7213AGP,Twin City Medical Centre,1,Kim Seng Promenade,#01-136,Great World City,,62351175,8.30am - 5.00pm,8.30am - 12.30pm,Closed,Closed,,1 Kim Seng Promenade #01-136 Great World City,Singapore
66,Central,Telok Blangah,True,False,True,5691AGP,Heartland Health (Telok Blangah),77,Telok Blangah Drive,#01-244,,,69708422,8.00am - 12.45pm 6.00pm - 10.45pm,8.00am - 12.45pm 6.00pm - 10.45pm,8.00am - 12.45pm 6.00pm - 10.45pm,8.00am - 12.45pm 6.00pm - 10.45pm,,77 Telok Blangah Drive #01-244,Singapore
67,Central,Telok Blangah,True,True,True,1957AGP,New Health Family Clinic,108,Depot Road,#01-08,Depot Heights Shopping Centre,,62786200,8.30am - 12.30pm 6.30pm - 7.30pm (Closed on Fri night),8.30am - 11.30am,8.30am - 11.00am,Closed,,108 Depot Road #01-08 Depot Heights Shopping Centre,Singapore
68,Central,Telok Blangah,True,False,True,7326AGP,The Local Doctor Clinic,61,Telok Blangah Heights,#01-107,,,60190409,"Mon, Wed & Fri 8.30am - 1.00pm 6.00pm - 9.30pm Tue & Thur 8.30am - 12.30pm 1.30pm - 5.30pm",8.30am - 12.00pm,Closed,Closed,,61 Telok Blangah Heights #01-107,Singapore
69,Central,Tiong Bahru,False,False,True,7239AGP,Healthway Medical (Jalan Membina),18,Jalan Membina,#02-08,,,60165138,Mon 8.30am - 1.00pm 2.00pm - 8.00pm Tue - Fri 8.30am - 1.00pm 2.00pm - 5.00pm,8.30am - 1.00pm,Closed,Closed,Clinic surcharge applicable,18 Jalan Membina #02-08,Singapore
70,Central,Tiong Bahru,True,True,False,4265AGP,Icare Medical Center,22,Havelock Road,#01-701,,,62527808,8.00am - 10.00pm,8.00am - 10.00pm,10.00am - 10.00pm,10.00am - 10.00pm,Clinic surcharge applicable,22 Havelock Road #01-701,Singapore
71,Central,Toa Payoh,False,False,True,7190AGP,Bethesda Medical (TPY),500,Lor 6 Toa Payoh,#04-33,HDB Hub,,62535600,9.00am - 1.00pm 2.00pm - 5.00pm,9.00am - 12.00pm,Closed,Closed,,500 Lor 6 Toa Payoh #04-33 HDB Hub,Singapore
72,Central,Toa Payoh,True,True,True,3350AGP,Braddell Medical Clinic,124,Lorong 1 Toa Payoh,#01-489,,,62536288,8.00am - 1.00pm 6.00pm - 11.00pm,8.00am - 1.00pm 6.00pm - 11.00pm,8.00am - 1.00pm 6.00pm - 11.00pm,8.00am - 1.00pm 6.00pm - 11.00pm,,124 Lorong 1 Toa Payoh #01-489,Singapore
73,Central,Toa Payoh,True,True,True,1321AGP,Doctors Inc. Medical Group Pte Ltd,178,Toa Payoh Central,#01-206,,,63563633,9.00am - 5.00pm 6.00pm - 9.00pm,9.00am - 1.00pm 5.00pm - 9.00pm,Closed,Closed,,178 Toa Payoh Central #01-206,Singapore
74,Central,Toa Payoh,True,True,True,1350AGP,Drs Chan & Tang Family Clinic,125,Lorong 1 Toa Payoh,#01-549,,,62511782,8.30am - 12.30pm 2.00pm - 5.00pm 7.00pm - 9.00pm (Mon & Wed),8.30am - 12.30pm,8.30am - 12.30pm,Closed,,125 Lorong 1 Toa Payoh #01-549,Singapore
75,Central,Toa Payoh,True,True,True,4283AGP,E Medical (Toa Payoh),126,Lorong 1 Toa Payoh,#01-567,,,63569391,"9.00am - 1.30pm 6.00pm - 8.30pm (Mon & Wed) 9.00am - 5.00pm (Tue, Thurs & Fri)",9.00am - 1.30pm,9.00am - 1.30pm,Closed,,126 Lorong 1 Toa Payoh #01-567,Singapore
76,Central,Toa Payoh,True,True,True,1428AGP,Faith Clinic (Toa Payoh),211,Lorong 8 Toa Payoh,#01-19,,,62527896,8.30am - 4.00pm,Closed,Closed,Closed,Clinic surcharge applicable,211 Lorong 8 Toa Payoh #01-19,Singapore
77,Central,Toa Payoh,True,True,True,1449AGP,Familycare Clinic & Surgery,85C,Lorong 4 Toa Payoh,#01-380,,,62509033,9.00am - 12.30pm 2.00pm - 4.00pm 7.30pm - 9.30pm,Closed,9.00am - 12.30pm,Closed,,85C Lorong 4 Toa Payoh #01-380,Singapore
78,Central,Toa Payoh,True,False,True,7322AGP,Healthcare United,70,Lor 4 Toa Payoh,#01-335,,,91515377,Mon - Fri 8.00am - 1.00pm 2.00pm - 5.00pm,Closed,8.30am - 12.30pm,Closed,Clinic surcharge applicable,70 Lor 4 Toa Payoh #01-335,Singapore
79,Central,Toa Payoh,True,True,True,1601AGP,Healthway Medical (Toa Payoh Central),177,Toa Payoh Central,#01-130,,,62553773,8.00am - 3.00pm 6.00pm - 9.00pm,8.30am - 12.30pm,9.00am - 12.30pm,9.00am - 12.30pm,Clinic surcharge applicable,177 Toa Payoh Central #01-130,Singapore
80,Central,Toa Payoh,True,True,True,3433AGP,Heartland Health (Kim Keat),19,Lorong 7 Toa Payoh,#01-272,,,62523858,7.00am - 11.00pm,"7.00am - 1.00pm, 6.00pm - 11.00pm","7.00am - 1.00pm, 6.00pm - 11.00pm","7.00am - 1.00pm, 6.00pm - 11.00pm",,19 Lorong 7 Toa Payoh #01-272,Singapore
81,Central,Toa Payoh,True,True,True,3778AGP,Heartland Health (Toa Payoh),66,Lorong 4 Toa Payoh,#01-315,,,62528223,8.00am - 1.00pm 6.00pm - 11.00pm,8.00am - 1.00pm 6.00pm - 11.00pm,8.00am - 1.00pm 6.00pm - 11.00pm,8.00am - 1.00pm 6.00pm - 11.00pm,,66 Lorong 4 Toa Payoh #01-315,Singapore
82,Central,Toa Payoh,True,False,True,1851AGP,Make-Well Family Clinic & Surgery,70,Lorong 4 Toa Payoh,#01-351,,,96967188,10.00am - 12.00pm 3.00pm - 4.00pm,10.00am - 12.00pm,Closed,Closed,,70 Lorong 4 Toa Payoh #01-351,Singapore
83,Central,Toa Payoh,True,True,True,1897AGP,Mediview Clinic & Surgery,150,Lorong 1 Toa Payoh,#01-999,,,62532351,"8.30am - 12.30pm (Mon - Fri) 2.00pm - 4.00pm (Mon & Tues) 2.00pm - 5.00pm (Wed, Thurs & Fri) 7.00pm - 9.00pm (Mon & Tues only)",8.30am - 12.30pm,Closed,Closed,,150 Lorong 1 Toa Payoh #01-999,Singapore
84,Central,Toa Payoh,True,True,True,1934AGP,My Family Clinic (TPY) Pte Ltd,79D,Toa Payoh Central,#01-53,,,62380301,8.30am - 2.00pm 2.30pm - 4.30pm (Mon only) 6.00pm - 10.00pm,8.30am - 2.00pm,9.00am - 12.00pm,Closed,Clinic surcharge applicable,79D Toa Payoh Central #01-53,Singapore
85,Central,Toa Payoh,True,True,True,7258AGP,Union Medical Clinic & Surgery (Toa Payoh),148,Lor 1 Toa Payoh,#01-917,,,69633148,8.30am - 2.00pm 6.00pm - 9.00pm,8.30am - 1.00pm,Closed,Closed,,148 Lor 1 Toa Payoh #01-917,Singapore
86,City,Chinatown,False,False,True,7181AGP,Minmed Clinic (Chinatown),133,New Bridge Rd,#02-32,Chinatown Point,,87250123,9.00am - 1.00pm 2.00pm - 5.00pm 6.00pm - 9.00pm,9.00am - 1.00pm,9.00am - 1.00pm,Closed,Clinic surcharge applicable,133 New Bridge Rd #02-32 Chinatown Point,Singapore
87,City,City Hall,True,True,True,1376AGP,Drs Singh & Partners (Raffles City),252,North Bridge Road,#02-16,Raffles City Medical Centre,,63388883,9.00am - 12.30pm,9.00am - 12.30pm,Closed,Closed,,252 North Bridge Road #02-16 Raffles City Medical Centre,Singapore
88,City,Marina,False,False,True,7045AGP,Minmed Clinic (Marina Bay),8A,Marina Boulevard,#B2-73/74,Marina Bay Link Mall,,87680123,9.00am - 1.00pm 2.00pm - 5.00pm,Closed,Closed,Closed,,8A Marina Boulevard #B2-73/74 Marina Bay Link Mall,Singapore
89,City,Raffles Place,True,True,True,1155AGP,Bethesda Medical Centre Pte Ltd,3,Temasek Boulevard,#03-330,Suntec City Mall,,63378933,8.30am - 1.00pm 2.00pm - 5.30pm,9.00am - 12.00pm,Closed,Closed,,3 Temasek Boulevard #03-330 Suntec City Mall,Singapore
90,City,Raffles Place,True,True,True,4739AGP,Crawfurd Medical,3,Temasek Boulevard,#02-482,Suntec City Mall,,68049580,8.30am - 6.00pm,8.30am - 1.00pm,Closed,Closed,,3 Temasek Boulevard #02-482 Suntec City Mall,Singapore
91,City,Raffles Place,False,False,True,5654AGP,Healthway Medical (Millenia Walk),9,Raffles Boulevard,#02-22,Millenia Walk,,69904583,8.30am - 1.00pm 2.00pm - 5.30pm,8.30am - 1.00pm,Closed,8.30am - 1.00pm,Clinic surcharge applicable,9 Raffles Boulevard #02-22 Millenia Walk,Singapore
92,City,Raffles Place,True,False,True,7308AGP,Pinnacle Medical Centre (Raffles Place),22,Malacca Street,#13-03,RB Capital Building,,65146889,8.30am - 1.00pm 2.00pm - 6.00pm,Closed,Closed,Closed,,22 Malacca Street #13-03 RB Capital Building,Singapore
93,City,Raffles Place,True,True,False,2381AGP,The Medical Practice,1,Raffles Link,#01-03A,,,63329086,8.30am - 12.30pm 1.30pm - 5.30pm,8.30pm - 12.30pm,Closed,Closed,,1 Raffles Link #01-03A,Singapore
94,City,Tanjong Pagar,True,False,False,7317AGP,Ascendcare Medical Clinic,11,Kee Seng St,#01-02,Onze@Tanjong Pagar,,89590102,Mon - Fri 10.00am - 1.30pm 2.30pm - 6.00pm,Closed,Closed,Closed,,11 Kee Seng St #01-02 Onze@Tanjong Pagar,Singapore
95,City,Tanjong Pagar,False,False,False,7299AGP,Beacon Medical Clinic Tanjong Pagar,7,,#02-103,Tanjong Pagar Plz,,93697878,8.00am - 12.00pm 1.00pm - 5.00pm,8.00am - 1.00pm,Closed,Closed,,7 #02-103 Tanjong Pagar Plz,Singapore
96,City,Tanjong Pagar,True,True,True,1912AGP,HMI Medical Centre (Amara),100,Tras Street,#14-01 & 15-01,100AM,,62255220,9.00am - 5.00pm,9.00am - 1.00pm,Closed,Closed,,100 Tras Street #14-01 & 15-01 100AM,Singapore
97,City,Tanjong Pagar,False,False,True,7236AGP,SKY Medical,100,Tras Street,#04-02,100AM Mall,,63200468,"Tue, Thurs & Fri 9.00am - 1.00pm 2.00pm - 6.00pm Mon & Wed 9.00am - 1.00pm 2.00pm - 8.30pm",9.00am - 1.00pm,9.00am - 1.00pm,9.00am - 1.00pm,Clinic surcharge applicable,100 Tras Street #04-02 100AM Mall,Singapore
98,City,Tanjong Pagar,False,False,False,4832AGP,The Bonham Clinic Pte Ltd,100,Peck Seah Street,#11-16/17,,,65331177,9.00am - 1.00pm 2.00pm - 5.00pm,9.00am - 1.00pm,Closed,Closed,,100 Peck Seah Street #11-16/17,Singapore
99,City,Tanjong Pagar,True,False,True,7321AGP,The Downstairs Clinic,7,Everton Park,#01-23,,,84916741,Mon & Thu 8.00am - 1.00pm 2.00pm - 5.00pm 6.00pm - 10.00pm Fri 8.00am - 1.00pm 2.00pm - 5.00pm,8.00am - 1.00pm 2.00pm - 5.00pm 6.00pm - 10.00pm,8.00am - 1.00pm 2.00pm - 5.00pm 6.00pm - 10.00pm,8.00am - 1.00pm 2.00pm - 5.00pm 6.00pm - 10.00pm,Clinic surcharge applicable,7 Everton Park #01-23,Singapore
100,City,Tanjong Pagar,True,True,True,2424AGP,Trinity Medical (Shenton),144,Robinson Road,#08-02,Robinson Square,,62279918,9.00am - 1.00pm 2.00pm - 5.30pm,Closed,Closed,Closed,,144 Robinson Road #08-02 Robinson Square,Singapore
101,East,Bedok,True,False,True,2850AGP,A1 Medical Clinic,418,Bedok North Avenue 2,#01-63,,,64930198,9.00am - 1.00pm 6.30pm - 10.00pm,9.00am - 12.00pm,7.00pm - 10.00pm,Closed,Clinic surcharge applicable,418 Bedok North Avenue 2 #01-63,Singapore
102,East,Bedok,True,True,True,5753AGP,Acumed Medical (Bedok),Blk 214,Bedok North St 1,#01-165,,,64438077,"Mon, Wed & Fri 8.30am - 1.00pm 2.00pm - 5.00pm Tue & Thur 8.30am - 1.00pm 2.00pm - 5.00pm 6.00pm - 9.00pm",8.30am - 1.00pm,Closed,Closed,Clinic surcharge applicable,Blk 214 Bedok North St 1 #01-165,Singapore
103,East,Bedok,True,True,True,5171AGP,Central 24-HR Clinic (Bedok),219,Bedok Central,#01-124,,,62476122,24 Hours,24 Hours,24 Hours,24 Hours,Clinic surcharge applicable,219 Bedok Central #01-124,Singapore
104,East,Bedok,True,True,True,7176AGP,EH Medical Family Clinic (Bedok South),152A,Bedok South Road,#01-05,,,63224226,Mon-Thurs 8.30am - 2.00pm 5.00pm - 9.30pm Fri 8.30am - 2.00pm,8.30am - 12.30pm,8.30am - 12.30pm,Closed,,152A Bedok South Road #01-05,Singapore
105,East,Bedok,True,False,False,1410AGP,Evangel Medical Clinic,10,Chai Chee Road,#01-01,,,64490555,"9.00am - 12.30pm 2.30pm - 5.00pm (Mon, Thur, Fri)",Closed,Closed,Closed,,10 Chai Chee Road #01-01,Singapore
106,East,Bedok,True,True,True,1475AGP,Frontier People's Clinic (Bedok),123,Bedok North Street 2,#01-152,,,64430261,"8.30am - 4.30pm 6.00pm - 9.00pm (Only on Mon, Wed) 8.30am - 12.30pm (Fri)",8.30am - 12.30pm,Closed,Closed,,123 Bedok North Street 2 #01-152,Singapore
107,East,Bedok,False,False,False,7331AGP,Good Medical Clinic (Bedok North),136,Bedok North Ave 3,#01-152,,,62092451,8.00am - 12.00pm 6.00pm - 10.00pm,8.00am - 12.00pm 6.00pm - 10.00pm,8.00am - 12.00pm 6.00pm - 10.00pm,8.00am - 12.00pm 6.00pm - 10.00pm,,136 Bedok North Ave 3 #01-152,Singapore
108,East,Bedok,True,False,False,7324AGP,Gryphon Medical Clinic,59,New Upper Changi Rd,#01-1268,,,63486914,Mon - Fri 8.00am - 1.00pm 2.00pm - 5.00pm 6.00pm - 9.00pm,8.00am - 1.00pm,8.00am - 1.00pm,8.00am - 1.00pm,Clinic surcharge applicable,59 New Upper Changi Rd #01-1268,Singapore
109,East,Bedok,True,True,True,1150AGP,Healthway Medical (Bedok),218,Bedok North Street 1,#01-17,,,64410236,8.00am - 1.00pm 2.00pm - 5.00pm 6.00pm - 10.00pm,8.00am - 1.00pm 2.00pm - 5.00pm,8.00am - 1.00pm 2.00pm - 5.00pm,8.00am - 1.00pm 2.00pm - 5.00pm,Clinic surcharge applicable,218 Bedok North Street 1 #01-17,Singapore
110,East,Bedok,True,True,True,4808AGP,Heartland Health (Bedok South),18,Bedok South Road,#01-69,,,62418812,7.00am - 1.00pm 6.00pm - 11.00pm,7.00am - 1.00pm 6.00pm - 11.00pm,7.00am - 1.00pm 6.00pm - 11.00pm,7.00am - 1.00pm 6.00pm - 11.00pm,,18 Bedok South Road #01-69,Singapore
111,East,Bedok,True,True,True,4146AGP,Heartland Health (New Upper Changi Road),59,New Upper Changi Road,#01-1276,,,64453100,7.00am - 11.00pm,7.00am - 1.00pm 6.00pm - 12.00am,7.00am - 1.00pm 6.00pm - 12.00am,Closed,,59 New Upper Changi Road #01-1276,Singapore
112,East,Bedok,True,False,True,7332AGP,HeartlandHealth (Bedok Central),418,Bedok North Ave 2,#01-85,,,64441104,8.00am - 1.00pm 6.00pm - 11.00pm,8.00am - 1.00pm 6.00pm - 11.00pm,8.00am - 1.00pm 6.00pm - 11.00pm,8.00am - 1.00pm 6.00pm - 11.00pm,,418 Bedok North Ave 2 #01-85,Singapore
113,East,Bedok,False,False,True,1719AGP,Kho Clinic,537,Bedok North Street 3,#01-519,,,62428266,8.30am - 12.30pm 2.00pm - 5.00pm 7.00pm - 9.00pm (Closed on Thurs pm & night),8.30am - 12.00pm,8.30am - 12.00pm,Closed,,537 Bedok North Street 3 #01-519,Singapore
114,East,Bedok,True,False,True,1810AGP,Lim Clinic & Surgery,20,Chai Chee Road,#01-418/420,,,62412211,9.00am - 12.00pm 2.00pm - 5.00pm,9.00am - 12.00pm,9.00am - 12.00pm,Closed,,20 Chai Chee Road #01-418/420,Singapore
115,East,Bedok,False,False,True,7040AGP,Minmed Clinic (Bedok),311,New Upper Changi Rd,#01-47/48,Bedok Mall,,85970123,9.00am - 1.00pm 2.00pm - 5.00pm 6.00pm - 9.00pm,9.00am - 1.00pm,9.00am - 1.00pm,9.00am - 1.00pm 2.00pm - 5.00pm,Clinic surcharge applicable,311 New Upper Changi Rd #01-47/48 Bedok Mall,Singapore
116,East,Bedok,True,False,True,7296AGP,MyCare Medical Clinic,55,Chai Chee Drive,#01-188,,,88826615,Mon - Thur 9.00am – 1.00pm 2.00pm – 5.00pm 6.00pm – 9.00pm Fri 9.00am – 1.00pm 2.00pm – 5.00pm,Closed,9.00am – 1.00pm 2.00pm – 5.00pm 6.00pm – 9.00pm,Closed,Clinic surcharge applicable,55 Chai Chee Drive #01-188,Singapore
117,East,Bedok,False,False,False,7293AGP,SGFamily Clinic (Chai Chee),36,Chai Chee Ave,#01-159,,,68162136,"Mon, Wed & Fri 9.00am - 1.00pm 2.00pm - 9.00pm Tue & Thur 9.00am - 1.00pm 2.00pm - 6.00pm",9.00am - 12.30pm,9.00am - 12.30pm,Closed,Clinic surcharge applicable,36 Chai Chee Ave #01-159,Singapore
118,East,Bedok,True,False,True,4278AGP,SM Haneefa Clinic,11,Chai Chee Road,#01-23,,,62434237,"Mon & Wed 8.30am - 1.00pm 2.00pm - 7.00pm Tue, Thurs & Fri 8.30am - 1.00pm 2.00pm - 5.30pm",8.30am - 1.00pm,9.00am - 1.00pm,Closed,,11 Chai Chee Road #01-23,Singapore
119,East,Bedok,False,False,True,7275AGP,Treetop Medical,510,Bedok North Street 3,#01-03,,,89579874,"Mon, Wed-Fri 8.30am - 1.30pm 5.30pm - 8.30pm Tue Closed",9.00am - 1.00pm,Closed,9.00am - 1.00pm,,510 Bedok North Street 3 #01-03,Singapore
120,East,Bedok Reservoir,True,True,True,4950AGP,Faith Clinic (Bedok),746,Bedok Reservoir Road,#01-3013,,,67020820,8.30am - 4.00pm,Closed,Closed,Closed,Clinic surcharge applicable,746 Bedok Reservoir Road #01-3013,Singapore
121,East,Bedok Reservoir,True,False,True,1683AGP,Joyhealth Medical Clinic & Surgery,744,Bedok Reservoir Road,#01-3027,,,67811868,Mon 9.00am - 12.30pm 2.30pm - 6.30pm Tue 9.00am - 12.30pm Wed - Fri 9.00am - 12.30pm 2.30pm - 5.00pm,9.00am - 12.00pm,Closed,Closed,,744 Bedok Reservoir Road #01-3027,Singapore
122,East,Bedok Reservoir,True,False,True,2051AGP,Phoon Clinic & Surgery,632,Bedok Reservoir Road,#01-828,,,64452119,9.00am - 12.30pm 2.00pm - 4.30pm 7.00pm - 9.00pm,9.00am - 12.30pm 2.00pm - 4.00pm,9.00am - 12.00pm,9.00am - 12.00pm,,632 Bedok Reservoir Road #01-828,Singapore
123,East,Bedok Reservoir,False,False,True,2140AGP,Reservoir Road Clinic & Surgery,704,Bedok Reservoir Road,#01-3622,,,64490289,8.30am - 12.30pm 2.00pm - 4.30pm 7.00pm - 9.00pm ( Wed : 6.00pm - 8.00pm) (Closed on Fri night),8.30am - 12.30pm,8.30am - 12.30pm,Closed,,704 Bedok Reservoir Road #01-3622,Singapore
124,East,Bedok Reservoir,True,False,True,2491AGP,Wong Family Clinic & Surgery,117,Bedok Reservoir Road,#01-68,,,68461613,8.30am - 12.30pm 2.00pm - 4.30pm 7.00pm - 9.30pm (Closed on Fri pm),8.30am - 12.30pm,Closed,Closed,,117 Bedok Reservoir Road #01-68,Singapore
125,East,Changi,False,False,False,7295AGP,Distinct Clinic Changi Business Park Branch,51,Changi Business Park Central 2,#02-02,The Signature,,60470072,9.00am - 12.30pm 1.30pm - 6.00pm,Closed,Closed,Closed,,51 Changi Business Park Central 2 #02-02 The Signature,Singapore
126,East,Changi,True,True,True,7220AGP,Pinnacle Family Clinic (Changi North),963C,Upper Changi Road North,#02-09,,,67527255,"Mon, Wed & Thur 8.30am - 11.00am 11.30am - 3.30pm 5.30pm - 8.30pm Tue & Fri 8.30am - 11.00am 11.30am - 3.30pm",9.00am - 1.00pm,Closed,Closed,,963C Upper Changi Road North #02-09,Singapore
127,East,East Coast,True,False,False,1179AGP,C & K Family Clinic,108,Upper East Coast Road,,,,62429588,9.00am - 12.00pm 6.00pm - 9.00pm,9.00am - 12.00pm,9.00am - 12.00pm,9.00am - 12.00pm,,108 Upper East Coast Road,Singapore
128,East,East Coast,True,False,True,1784AGP,Liang Clinic,55,Siglap Road,#B1-15/16,Siglap Centre,,62415944,8.30am - 12.00pm 2.00pm - 5.00pm (Closed on Wed pm),8.30am - 12.00pm,Closed,Closed,,55 Siglap Road #B1-15/16 Siglap Centre,Singapore
129,East,Eunos,False,False,True,7292AGP,Prima Care Family Clinic,848,Sims Ave,#01-734,,,67428865,"Mon, Thur & Fri 8.30am – 1.00pm 2.00pm – 5.30pm Tue & Wed 8.30am – 1.00pm 2.00pm – 5.30pm 6.00pm – 9.00pm",8.30am - 12.30pm,Closed,Closed,,848 Sims Ave #01-734,Singapore
130,East,Eunos,True,False,False,7282AGP,Truecare Clinic (Eunos),30,Eunos Crescent,#01-17/18,,,91900005,9am - 1.00pm 6.00pm - 9.00pm,9.00am - 1.00pm,Closed,Closed,,30 Eunos Crescent #01-17/18,Singapore
131,East,Geylang,False,False,True,7106AGP,Healthway Medical (Aljunied Crescent),95,Aljunied Crescent,#01-521,,,60165099,8.30am - 1.00pm 2.00pm - 5.00pm,8.30am - 1.00pm,Closed,Closed,Clinic surcharge applicable,95 Aljunied Crescent #01-521,Singapore
132,East,Geylang,True,True,True,4948AGP,Sims Drive Medical Clinic,53,Sims Place,#01-174,,,67411607,8.30am - 12.30pm 2.00pm - 4.30pm 7.00pm - 9.00pm,8.30am - 12.30pm 7.00pm - 9.00pm,8.30am - 12.30pm,Closed,,53 Sims Place #01-174,Singapore
133,East,Geylang,False,False,False,7311AGP,Sims Family Clinic,4,Sims Drive,#01-69,,,89117121,Mon - Thur 8.30am - 1.30pm 2.00pm - 5.00pm 6.00pm - 9.00pm Fri 8.30am - 1.30pm 2.00pm - 5.00pm,8.30am - 12.30pm,8.30am - 12.30pm,Closed,Clinic surcharge applicable,4 Sims Drive #01-69,Singapore
134,East,Katong,False,False,True,7261AGP,Bright View Clinic & Surgery,10,Haig Rd,#01-359,,,65133700,9.00am - 9.00pm,9.00am - 9.00pm,9.00am - 9.00pm,9.00am - 9.00pm,,10 Haig Rd #01-359,Singapore
135,East,Katong,True,True,True,1314AGP,Minmed Clinic (Haig Road),30,Haig Road,,,,89510123,9.00am - 3.00pm 6.00pm - 9.00pm (Closed on Fri night),9.00am - 1.00pm,6.00pm - 9.00pm,Closed,Clinic surcharge applicable,30 Haig Road,Singapore
136,East,Katong,True,True,True,7266AGP,Tembusu Medical Clinic (Haig Road),36,Haig Road,,,,60221007,"Mon, Tue & Thur 8.30am - 2.00pm 3.00pm - 5.00pm 6.00pm - 9.00pm Wed 8.30am - 2.00pm 6.00pm - 9.00pm Fri 8.30am - 2.00pm",8.30am - 1.00pm,8.30am - 1.00pm,Closed,,36 Haig Road,Singapore
137,East,Kembangan,False,False,False,7289AGP,Care Connect Clinic,482,Changi Road,,,,64202690,"Mon, Tue, Thur 8.00am – 2.00pm 3.00pm – 8.00pm Wed & Fri 8.00am – 2.00pm 3.00pm – 6.00pm",8.00am – 2.00pm 3.00pm – 6.00pm,Closed,8.00am – 2.00pm 3.00pm – 6.00pm Except if PH falls on Sunday,Clinic surcharge applicable,482 Changi Road,Singapore
138,East,Kembangan,True,True,True,1590AGP,Healthway Medical (Lengkong Tiga),110,Lengkong Tiga,#01-231,,,67494062,8:30am - 1:00pm 2:00pm - 5:00pm 6:30pm - 9:00pm (Closed on Fri night),8:30am - 12:30pm,9:00am - 12:30pm,9:00am - 12:30pm,Clinic surcharge applicable,110 Lengkong Tiga #01-231,Singapore
139,East,Marine Parade,True,False,False,7304AGP,CareHub Medical Clinic,13,Marine Ter,#01-176,,,60380397,8.30am – 1.00pm 2.00pm – 5.00pm 6.00pm – 9.00pm,8.30am - 1.00pm,Closed,Closed,,13 Marine Ter #01-176,Singapore
140,East,Marine Parade,False,False,True,5697AGP,Central Clinic & Surgery (Marine Parade),81,Marine Parade Central,#01-630,,,63466277,8.00am - 6.00pm,8.00am - 6.00pm,8.00am - 1.00pm,8.00am - 1.00pm,,81 Marine Parade Central #01-630,Singapore
141,East,Marine Parade,True,True,True,1430AGP,Faith Family Clinic (Marine Terrace),57,Marine Terrace,#01-113,,,64466326,8.30am - 4.00pm,Closed,Closed,Closed,Clinic surcharge applicable,57 Marine Terrace #01-113,Singapore
142,East,Marine Parade,True,True,True,1860AGP,Marine Parade Clinic,59,Marine Terrace,#01-81,,,62419065,"8.30am - 9.00pm (Mon, Thurs) 8.30am - 6.00pm (Tues, Wed, Fri)",8.30am - 12.30pm,8.30am - 12.30pm,Closed,,59 Marine Terrace #01-81,Singapore
143,East,Marine Parade,True,True,True,1889AGP,Mediline Wei Min Clinic (Marine Parade),81,Marine Parade Central,#01-634,,,62479221,7.00am - 12.00am (Lunch Time : 11.30am - 2.45pm),7.00am - 12.00am (Lunch Time : 11.30am - 2.45pm),7.00am - 12.00am (Lunch Time : 11.30am - 2.45pm),7.00am - 12.00am (Lunch Time : 11.30am - 2.45pm),Clinic surcharge applicable,81 Marine Parade Central #01-634,Singapore
144,East,Marine Parade,False,False,True,5463AGP,Minmed Clinic (Marine Parade),80,Marine Parade Road,#05-21,Parkway Parade,,87760123,9.00am - 1.00pm 2.00pm - 5.00pm,9.00am - 1.00pm,Closed,Closed,Clinic surcharge applicable,80 Marine Parade Road #05-21 Parkway Parade,Singapore
145,East,Pasir Ris,True,True,True,1207AGP,Central 24-HR Clinic (Pasir Ris),446,Pasir Ris Drive 6,#01-122,,,65822640,24 Hours,24 Hours,24 Hours,24 Hours,Clinic surcharge applicable,446 Pasir Ris Drive 6 #01-122,Singapore
146,East,Pasir Ris,True,True,True,2230AGP,FamilyGP Medical Clinic,11,Pasir Ris Link,#01-49,Seastrand Condominium,,62878755,9.00am - 1.00pm 7.00pm - 9.00pm,9.00am - 1.00pm,Closed,Closed,,11 Pasir Ris Link #01-49 Seastrand Condominium,Singapore
147,East,Pasir Ris,True,True,True,1591AGP,Healthway Medical (Elias Mall),625,Elias Road,#01-322,Fajar Shopping Centre,,65846822,8:30am - 5:00pm 6:30pm - 9:00pm,8:30am - 12:30pm,8:30am - 12:30pm,8:30am - 12:30pm,Clinic surcharge applicable,625 Elias Road #01-322 Fajar Shopping Centre,Singapore
148,East,Pasir Ris,True,False,True,1808AGP,Lily Aw Pasir Ris Family Clinic & Surgery,446,Pasir Ris Drive 6,#01-116,,,65822122,8.30am - 12.30pm 2.00pm - 4.30pm 6.00pm - 9.00pm,8.30am - 12.30pm,8.30am - 12.30pm,8.30am - 12.30pm,,446 Pasir Ris Drive 6 #01-116,Singapore
149,East,Pasir Ris,True,True,True,1315AGP,Minmed Clinic (Pasir Ris),1,Pasir Ris Central Street 3,#05-09,White Sands,,87860123,8.30am - 9.00pm,9.00am - 1.00pm 2.00pm - 5.00pm,9.00am - 1.00pm 2.00pm - 5.00pm,8.30am - 9.00pm,Clinic surcharge applicable,1 Pasir Ris Central Street 3 #05-09 White Sands,Singapore
150,East,Pasir Ris,True,True,True,1210AGP,Pinnacle Family Clinic (Pasir Ris),571,Pasir Ris Central Street 53,#01-50,,,62437338,Mon-Thur 8.00am-1.00pm 2.00pm-4.00pm 6.00pm-9.00pm Fri 8.00am-1.00pm,9.00am-1.00pm,9.00am-12.00pm,Closed,,571 Pasir Ris Central Street 53 #01-50,Singapore
151,East,Pasir Ris,True,False,False,2470AGP,Well Medical Clinic & Surgery,739,Pasir Ris Drive 10,#01-11,,,65852252,8.30am - 12.15pm 2.00pm - 1.45pm 7.00pm - 9.00pm,8.30am - 12.15pm 7.00pm - 9.00pm,Closed,Closed,,739 Pasir Ris Drive 10 #01-11,Singapore
152,East,Paya Lebar,True,True,True,7276AGP,GoodDoctors Medical Clinic @Geylang Serai,1,Geylang Serai,#01-208,,,69805667,8.00am - 10.00pm,8.00am - 10.00pm,8.00am - 10.00pm,8.00am - 10.00pm,,1 Geylang Serai #01-208,Singapore
153,East,Paya Lebar,False,False,True,5669AGP,Minmed Clinic (Paya Lebar),10,Eunos Road 8,#02-122,Singapore Post Centre,,87920123,9.00am - 1.00pm 2.00pm - 5.00pm,9.00am - 1.00pm,Closed,Closed,Clinic surcharge applicable,10 Eunos Road 8 #02-122 Singapore Post Centre,Singapore
154,East,Paya Lebar,True,True,True,7209AGP,Phoenix Medical Group (Paya Lebar),60,Paya Lebar Rd,#02-09,Paya Lebar Square,,67022940,9.00am - 12.30pm 2.00pm - 5.00pm,9.00am - 12.30pm,Closed,Closed,,60 Paya Lebar Rd #02-09 Paya Lebar Square,Singapore
155,East,Paya Lebar,False,False,True,7137AGP,Pinnacle Family Clinic (Dakota),91,Jalan Satu,#01-05,,,65399712,Mon 8.00am - 1.00pm 1.30pm - 3.30pm 6.00pm - 9.00pm Tue - Thurs 8.00am - 2.30pm 5.00pm - 8.30pm Fri 8.00am - 1.00pm 1.30pm - 3.30pm,9.00am - 1.00pm,9.00am - 12.00pm,Closed,,91 Jalan Satu #01-05,Singapore
156,East,Paya Lebar,True,False,True,2246AGP,Spring Medical Clinic (Old Airport Road) Pte Ltd,39,Jalan Tiga,#01-03,,,62477077,9.00am - 3.00pm 6.30pm - 9.30pm (Closed on Friday night),9.00am - 12.30pm,Closed,Closed,Clinic surcharge applicable,39 Jalan Tiga #01-03,Singapore
157,East,Tampines,True,False,True,5679AGP,Acumed Medical (Tampines West),Blk 801,Tampines Ave 4,#01-269,Tampines Polyview,,62231070,8.30am - 1.00pm 2.00pm - 5.00pm,Closed,Closed,Closed,,Blk 801 Tampines Ave 4 #01-269 Tampines Polyview,Singapore
158,East,Tampines,True,True,True,7158AGP,Bethesda Medical @ Tampines,406,Tampines Street 41,#01-31,,,67831806,8.30am - 1.00pm 2.00pm - 4.30pm,8.30am - 1.00pm,Closed,Closed,,406 Tampines Street 41 #01-31,Singapore
159,East,Tampines,True,True,True,2748AGP,Central 24-hr Clinic (Tampines),201D,Tampines Street 21,#01-1151,,,69687001,24 Hours,24 Hours,24 Hours,24 Hours,Clinic surcharge applicable,201D Tampines Street 21 #01-1151,Singapore
160,East,Tampines,True,False,False,1235AGP,Chia & Lee Medical & Dental Clinic,802,Tampines Ave 4,#01-15,,,67812969,8.30am - 12.30pm 2.00pm - 4.30pm 6.30pm - 9.00pm,8.30am - 12.30pm,8.30am - 12.30pm,8.30am - 12.30pm,,802 Tampines Ave 4 #01-15,Singapore
161,East,Tampines,True,True,True,5142AGP,DA Clinic @ Simei,248,Simei St 3,#01-128,Multi Storey Carpark,,31650146,8.30am - 12.00pm 1.00pm - 9.00pm,8.30am - 12.00pm,8.30am - 12.00pm,8.30am - 12.00pm,,248 Simei St 3 #01-128 Multi Storey Carpark,Singapore
162,East,Tampines,True,True,True,1316AGP,Dayspring Medical Clinic (Tampines),2,Tampines Central 5,#04-09,Century Square,,67890123,9.00am - 1.00pm 2.00pm - 5.00pm 6.00pm - 9.00pm,9.00am - 1.00pm,Closed,Closed,Clinic surcharge applicable,2 Tampines Central 5 #04-09 Century Square,Singapore
163,East,Tampines,True,False,False,1422AGP,F K Lim Family Clinic,267,Tampines Street 21,#01-43,,,67860201,8.15am - 12.30pm 2.00pm - 4.30pm 7.00pm - 9.00pm (Closed on Wed pm),8.30am - 12.30pm,8.30am - 12.30pm,8.30am - 12.30pm,,267 Tampines Street 21 #01-43,Singapore
164,East,Tampines,True,True,True,1427AGP,Faith Clinic (Simei),139,Simei Street 1,#01-10,,,67884303,8.30am - 4.00pm,Closed,Closed,Closed,Clinic surcharge applicable,139 Simei Street 1 #01-10,Singapore
165,East,Tampines,True,True,True,4954AGP,Faith Healthcare (Tampines),11,Tampines Street 32,#01-11,Tampines Mart,,64433843,8.30am - 4.00pm,Closed,Closed,Closed,Clinic surcharge applicable,11 Tampines Street 32 #01-11 Tampines Mart,Singapore
166,East,Tampines,True,True,True,1598AGP,Healthway Medical (Tampines Central),503,Tampines Central 1,#01-311,,,67890383,"Mon & Thurs 8.30am - 1.00pm 2.00pm - 5.00pm 6.00pm - 9.00pm Tue, Wed & Fri 8.30am - 1.00pm 2.00pm - 5.00pm",8.30am - 1.00pm,Closed,Closed,Clinic surcharge applicable,503 Tampines Central 1 #01-311,Singapore
167,East,Tampines,True,True,True,4188AGP,Healthway Medical (Tampines St 21),201D,Tampines Street 21,#01-1143,,,62608801,8.00am - 1.00pm 2.00pm - 5.00pm 6.00pm - 9.00pm,8.00am - 1.00pm,8.30am - 12.30pm,8.30am - 12.30pm,Clinic surcharge applicable,201D Tampines Street 21 #01-1143,Singapore
168,East,Tampines,True,True,True,1599AGP,Healthway Medical (Tampines St 71),710,Tampines Street 71,#01-134,,,62609081,8:30am - 1.00pm 2:00pm - 4:30pm 6:00pm - 9:00pm,8:30am - 1.00pm,8:30am - 1.00pm,8:30am - 1.00pm,Clinic surcharge applicable,710 Tampines Street 71 #01-134,Singapore
169,East,Tampines,True,True,True,3776AGP,Heartland Health (Tampines),730,Tampines St 71,#01-51,,,65887833,8.00am - 1.00pm 6.00pm - 11.00pm,8.00am - 1.00pm 6.00pm - 11.00pm,8.00am - 1.00pm 6.00pm - 11.00pm,8.00am - 1.00pm 6.00pm - 11.00pm,,730 Tampines St 71 #01-51,Singapore
170,East,Tampines,True,False,True,7333AGP,HeartlandHealth (Tampines East),201E,Tampines St 23,#01-90,,,65922914,7.00am - 1.00pm 6.00pm - 11.00pm,7.00am - 1.00pm 6.00pm - 11.00pm,7.00am - 1.00pm 6.00pm - 11.00pm,7.00am - 1.00pm 6.00pm - 11.00pm,,201E Tampines St 23 #01-90,Singapore
171,East,Tampines,True,False,False,1626AGP,Hong Family Clinic,282,Tampines Street 22,#01-300,,,67843300,8.30am - 12.15pm 2.00pm - 4.15pm 6.30pm - 8.30pm (Closed on Thurs pm),8.30am - 12.15pm,9.00am - 12.00pm,Closed,,282 Tampines Street 22 #01-300,Singapore
172,East,Tampines,False,False,True,5230AGP,Hwang & Liang Family Clinic & Surgery,476,Tampines Street 44,#01-173,,,67888888,8.30am - 11.30pm 2.00pm - 4.15pm 6.30pm - 8.15pm,9.00am - 11.45am,Closed,Closed,,476 Tampines Street 44 #01-173,Singapore
173,East,Tampines,True,False,True,7314AGP,Kindred Family Clinic (Tampines),494,Tampines Street 45,#01-02,,,62327893,Mon - Fri 8.30am - 12.30pm 2.00pm - 4.30pm 6.00pm - 8.30pm,8.30am - 12.30pm,Closed,Closed,,494 Tampines Street 45 #01-02,Singapore
174,East,Tampines,True,True,True,1879AGP,Medicare Associates,482,Tampines Avenue 9 Street 43,#01-236,,,67880137,8.30am - 12.00pm 2.00pm - 4.00pm 6.30pm - 9.00pm,8.30am - 12.00pm,8.30am - 12.00pm,Closed,,482 Tampines Avenue 9 Street 43 #01-236,Singapore
175,East,Tampines,True,True,True,3203AGP,Our Family Physician Clinic and Surgery,829,Tampines St 81,#01-292,,,67850147,8.00am - 11.00pm,8.00am - 11.00pm,8.00am - 11.00pm,8.00am - 11.00pm,Clinic surcharge applicable,829 Tampines St 81 #01-292,Singapore
176,East,Tampines,True,True,True,7255AGP,Pinnacle Family Clinic (Tampines North),633,Tampines North Drive 2,#02-06,HDB Green Court,,65137189,8.00am - 4.00pm 6.00pm - 9.00pm,9.00am - 1.00pm,9.00am - 1.00pm,Closed,,633 Tampines North Drive 2 #02-06 HDB Green Court,Singapore
177,East,Tampines,True,False,True,2066AGP,Praise Family Clinic,717,Tampines Street 72,#01-75,,,67843785,"8.00am - 1.00pm 2.00pm - 6.00pm (Tue, Thu & Fri) 2.00pm - 10.00pm",9.00am - 2.00pm,9.00am - 2.00pm,9.00am - 2.00pm,,717 Tampines Street 72 #01-75,Singapore
178,East,Tampines,True,True,True,4275AGP,Q & M Medical & Aesthetic Clinic (Tampines Central),10,Tampines Central 1,#04-18/19,Tampines 1,,67813323,9.00am - 1.00pm 2.00pm - 9.00pm,9.00am - 1.00pm,9.00am - 1.00pm,Closed,Clinic surcharge applicable,10 Tampines Central 1 #04-18/19 Tampines 1,Singapore
179,East,Tampines,True,False,True,2154AGP,Ruby Medical Centre,505,Tampines Central 1,#01-339,,,67837847,8.30am - 12.30pm 2.00pm - 4.00pm 6.30pm - 8.30pm,8.30am - 12.30pm,Closed,Closed,,505 Tampines Central 1 #01-339,Singapore
180,East,Tampines,False,False,True,2173AGP,Seasons Clinic,844,Tampines Street 82,#01-139,,,67877836,8.30am - 12.30pm 2.00pm - 5.00pm 7.00pm - 9.00pm,8.30am -12.30pm,8.30am -12.30pm,Closed,,844 Tampines Street 82 #01-139,Singapore
181,East,Tampines,True,True,True,7272AGP,Street 21 Clinic Tampines,201B,Tampines St 21,#02-1097,,,67857888,8.30am - 12.30pm 4.30pm - 7.30pm,8.30am - 12.30pm,3.00pm - 6.00pm,Closed,,201B Tampines St 21 #02-1097,Singapore
182,East,Tampines,True,True,True,2295AGP,Tampines Medilife Clinic,801,Tampines Ave 4,#01-263,,,67825142,8.30am - 12.30pm 2.00pm - 4.30pm 7.00pm - 9.00pm,8.30am - 12.30pm,8.30am - 12.30pm,Closed,,801 Tampines Ave 4 #01-263,Singapore
183,East,Tampines,False,False,False,7312AGP,Tampines West Family Clinic,117,Tampines Street 86,#01-50,,,89117822,Mon - Thur 9.00am - 2.00pm 6.00pm - 9.00pm Fri 9.00am - 2.00pm,9.00am - 12.30pm,9.00am - 12.30pm,Closed,Clinic surcharge applicable,117 Tampines Street 86 #01-50,Singapore
184,East,Tampines,True,False,False,7301AGP,Ultimed Clinic (Tampines 11),139,Tampines Street 11,#01-42,,,65922859,8.30am – 1.00pm 2.00pm – 5.30pm,8.30am - 1.00pm,Closed,Closed,,139 Tampines Street 11 #01-42,Singapore
185,East,Tampines,True,False,False,7302AGP,Ultimed Clinic (Tampines 81),824,Tampines Street 81,#01-36,Tampines Grove,,65922858,8.30am – 1.00pm 2.00pm – 5.30pm,8.30am - 1.00pm,Closed,Closed,,824 Tampines Street 81 #01-36 Tampines Grove,Singapore
186,East,Tampines,False,False,False,7330AGP,Ultimed Medical Centre & Surgical Suites (OTH),1,Tampines Walk,#05-31A,Our Tampines Hub,,65922770,8.30am - 5.30pm,8.30am - 1.00pm,Closed,Closed,,1 Tampines Walk #05-31A Our Tampines Hub,Singapore
187,East,Tampines,False,False,False,7309AGP,Unihealth 24-Hr Clinic (Tampines),138,Tampines Street 11,#01-98,,,63484024,24 Hours,24 Hours,24 Hours,24 Hours,Clinic surcharge applicable,138 Tampines Street 11 #01-98,Singapore
188,East,Tampines,True,False,True,2437AGP,United Medical Practitioners (Tampines),139,Tampines Street 11,#01-16,,,67812281,8.30am - 12.15pm 2.00pm - 4.30pm (Closed on Thurs) 6.45pm - 8.30pm,8.30am - 12.15pm,8.30am - 12.15pm,Closed,Clinic surcharge applicable,139 Tampines Street 11 #01-16,Singapore
189,East,Tampines,False,False,True,3531AGP,W Y Teh Family Clinic And Surgery,462,Tampines Street 44,#01-60,,,67836802,8.30am - 12.30pm 2.00pm - 6.00pm,9.00am - 12.00pm,Closed,Closed,,462 Tampines Street 44 #01-60,Singapore
190,East,Tampines,True,True,False,2510AGP,Yao Medical Clinic,419,Tampines Street 41,#01-96,,,67830232,8.30am - 12.30pm 2.00pm - 4.00pm 7.00pm - 9.00pm,8.30am - 12.30pm,8.30am - 12.30pm,Closed,,419 Tampines Street 41 #01-96,Singapore
191,Malaysia,Johor Bahru,False,False,False,2530AGPJB,24 Jam Poliklinik Yap,114,"Jalan Perwira 1, Taman Ungku Tun Aminah,",,,,02-07-5583303,24 hours,24 hours,24 hours,24 hours,,"114 Jalan Perwira 1, Taman Ungku Tun Aminah,",Malaysia
192,Malaysia,Johor Bahru,False,False,False,7305AGPJB,Carepoint Clinic Kangkar Pulai,34,Jalan Pulai Ria 9,,"Mukim Senai, Kangkar Pulai",,6012-5873501,9.00am - 9.00pm,9.00am - 9.00pm,Closed,Closed,,"34 Jalan Pulai Ria 9 Mukim Senai, Kangkar Pulai",Malaysia
193,Malaysia,Johor Bahru,False,False,False,2788AGPJB,Family Health Clinic (Jalan Austin Heights),23,Jalan Austin Heights 8/3,,,,07-3645725,7.00am - 12.00am,7.00am - 12.00am,7.00am - 12.00am,7.00am - 12.00am,,23 Jalan Austin Heights 8/3,Malaysia
194,Malaysia,Johor Bahru,False,False,False,4825AGPJB,Horizon Family Polyclinic,2,"Jalan Hijauan 4, Bukit Horizon",,,,02-07-5539558,8.00am - 8.00pm (Mon - Thur) 8.00am - 6.00pm (Fri),Closed,8.00am - 6.00pm,Closed,,"2 Jalan Hijauan 4, Bukit Horizon",Malaysia
195,Malaysia,Johor Bahru,False,False,False,4012AGPJB,KANG MING FAMILY CLINIC SDN GHD,10,Jalan Setia 3/12,,Taman Setia Indah,,165259659,8.00am - 9.00pm,8.00am - 3.00pm,8.00am - 9.00pm,Closed,,10 Jalan Setia 3/12 Taman Setia Indah,Malaysia
196,Malaysia,Johor Bahru,False,False,False,2907AGPJB,K-Health Medical Clinic,31,Jln Harmonium 35/1,,Tmn Desa Tebrau,,73615743,8.00am - 9.30pm (Mon - Thur) closed on Friday,8.00am - 9.30pm,8.00am - 9.30pm,Closed,,31 Jln Harmonium 35/1 Tmn Desa Tebrau,Malaysia
197,Malaysia,Johor Bahru,False,False,False,2653AGPJB,KLINIK ABIRAM & SURGERI,145,Jalan NB 2 2/2,,Taman Nusa Bestari 2,,75550633,8.00am - 9.00pm (Closed on Thurs),8.00am - 9.00pm,8.00am - 9.00pm,8.00am - 9.00pm,,145 Jalan NB 2 2/2 Taman Nusa Bestari 2,Malaysia
198,Malaysia,Johor Bahru,False,False,False,2905AGPJB,Klinik Adham Mutiara Rini,19,Jalan Jasa 25,,"Prisint Jasa, Mutiara Rini, 81300 Skudai, Johor",,75570194,24 Hrs,24 Hrs,24 Hrs,24 Hrs,,"19 Jalan Jasa 25 Prisint Jasa, Mutiara Rini, 81300 Skudai, Johor",Malaysia
199,Malaysia,Johor Bahru,False,False,False,4123AGPJB,KLINIK ANNU DAN SURGERI,165,Jalan Pahlawan 1,,Taman Ungku Tun Aminah,,75541180,9.00am - 12.00am,9.00am - 12.00am,9.00am - 12.00am,9.00am - 12.00am,,165 Jalan Pahlawan 1 Taman Ungku Tun Aminah,Malaysia
200,Malaysia,Johor Bahru,False,False,False,3144AGPJB,Klinik Asia Daya,10,"Jalan Sagu Satu, Taman Daya",,,,02-07-3547167,8.30am - 9.00pm,8.30am - 5.00pm,Closed,Closed,,"10 Jalan Sagu Satu, Taman Daya",Malaysia
201,Malaysia,Johor Bahru,False,False,False,2536AGPJB,Klinik Asia Johor Jaya,4,"Jalan Dedap 15, Taman Johor Jaya",,,,02-07-354667,9.00am - 9.00pm,9.00am - 1.00pm,Closed,Closed,,"4 Jalan Dedap 15, Taman Johor Jaya",Malaysia
202,Malaysia,Johor Bahru,False,False,False,3986AGPJB,KLINIK Asia Kulai,268 & 269,Jalan Kenanga 29/8,,Bandar Indahpura,,07-6606136,8.00am - 12.00am,8.00am - 12.00am,8.00am - 12.00am,8.00am - 12.00am,,268 & 269 Jalan Kenanga 29/8 Bandar Indahpura,Malaysia
203,Malaysia,Johor Bahru,False,False,False,7156AGPJB,Klinik Asia Skudai,14,Jln Shahbandar 2,,Taman Ungku Tun Aminah,,075567844,9.00am - 9.00pm,9.00am - 9.00pm,Closed,Closed,,14 Jln Shahbandar 2 Taman Ungku Tun Aminah,Malaysia
204,Malaysia,Johor Bahru,False,False,False,2538AGPJB,Klinik Asia Tebrau,111,"Jalan Perisai, Taman Sri Tebrau",,Johor Bahru,,02-07-3333234,24 hours,24 hours,24 hours,24 hours,,"111 Jalan Perisai, Taman Sri Tebrau Johor Bahru",Malaysia
205,Malaysia,Johor Bahru,False,False,False,3547AGPJB,Klinik Austin,37,Jalan Austin Hight 8/8,,Taman Mount Austin,,6072874218,9.00am - 4.00pm,Closed,9.00am - 3.00pm,Closed,,37 Jalan Austin Hight 8/8 Taman Mount Austin,Malaysia
206,Malaysia,Johor Bahru,False,False,False,2655AGPJB,Klinik Federal,34,Jalan Hariman Tarum,,Taman Abad,,73339928,9.00am - 5.00pm 7.00pm - 9.00pm,Closed,Closed,Closed,,34 Jalan Hariman Tarum Taman Abad,Malaysia
207,Malaysia,Johor Bahru,False,False,False,2657AGPJB,Klinik Ferliz,50G,Jalan Bestari 3/2,,Taman Nusa Bestari,,72344720,Mon-Thur 9.00am - 9.00pm Fri 9.00am - 6.00pm,9.00am - 9.00pm,9.00am - 9.00pm,Closed,,50G Jalan Bestari 3/2 Taman Nusa Bestari,Malaysia
208,Malaysia,Johor Bahru,False,False,False,7155AGPJB,Klinik Ho,1766,Jalan Senai Utama 1/2,,Taman Senai Utama,,073341139,9.00am - 5.00pm,9.00am-1.00pm,Closed,Closed,,1766 Jalan Senai Utama 1/2 Taman Senai Utama,Malaysia
209,Malaysia,Johor Bahru,False,False,False,2666AGPJB,Klinik Keluarga Dan Surgeri (Larkin),39G,Susur Larkin Perdana 1,,,,07-234 0512/016-7996334,9.00am - 10.00pm,9.00am - 10.00pm,9.00am - 10.00pm,9.00am - 10.00pm,,39G Susur Larkin Perdana 1,Malaysia
210,Malaysia,Johor Bahru,False,False,False,2656AGPJB,KLINIK LEE,201,Jalan Simbang,,Taman Perling,,72376686,9.00am - 5.00pm,9.00am - 5.00pm,Closed,Closed,,201 Jalan Simbang Taman Perling,Malaysia
211,Malaysia,Johor Bahru,False,False,False,2550AGPJB,Klinik Lee Dan Surgeri,14,"Jalan Indah 16/5, Taman Bukit Indah",,,,607-2365419,9.00am - 1.00pm 2.30pm - 4.30pm 7.00pm - 10.00pm,9.00am - 1.00pm 2.30pm - 4.30pm 7.00pm - 10.00pm,9.00am - 1.00pm 2.30pm - 4.30pm 7.00pm - 10.00pm,9.00am - 1.00pm 2.30pm - 4.30pm 7.00pm - 10.00pm,,"14 Jalan Indah 16/5, Taman Bukit Indah",Malaysia
212,Malaysia,Johor Bahru,False,False,False,5037AGPJB,Klinik Lee Dan Surgeri (Jalan Mutiara),45,"Jalan Mutiara 1/2, Skudai, Johor",,Taman Mutiara Mas,,02-07-5545418,9.00am - 10.00pm,9.00am - 10.00pm,9.00am - 10.00pm,9.00am - 10.00pm,,"45 Jalan Mutiara 1/2, Skudai, Johor Taman Mutiara Mas",Malaysia
213,Malaysia,Johor Bahru,False,False,False,4062AGPJB,KLINIK LING,27,Jalan Temenggong 10,,Taman Ungku Tan Aminah,,75543316,9.00am - 5.00pm (Closed on Fri),9.00am - 5.00pm,9.00am - 5.00pm,Closed,,27 Jalan Temenggong 10 Taman Ungku Tan Aminah,Malaysia
214,Malaysia,Johor Bahru,False,False,False,4053AGPJB,KLINIK MEDIVIRON (TAMAN SRI BAHAGIA),73,Jalan Sri Bahagia 5,,Taman Sri Bahagia,,72328951,8.00am - 8.00pm,8.00am - 8.00pm,Closed,Closed,,73 Jalan Sri Bahagia 5 Taman Sri Bahagia,Malaysia
215,Malaysia,Johor Bahru,False,False,False,3143AGPJB,Klinik Mediviron Bukit Indah,87,Jalan Indah 15/2 Taman Bukit Indah,,,,07-2329933,24 Hours,24 Hours,24 Hours,24 Hours,,87 Jalan Indah 15/2 Taman Bukit Indah,Malaysia
216,Malaysia,Johor Bahru,False,False,False,2553AGPJB,Klinik Mesra Larkin,5C-08 (A),"Pusat Pengangkutan Awam Larkin,Jalan Geroda",,Jalan Geroda 2,,02-07-2228966,9.00am - 1.00pm 2.00pm - 5.00pm 6.00pm - 8.00pm,9.00am - 1.00pm 2.00pm - 5.00pm,9.00am - 1.00pm,Closed,,"5C-08 (A) Pusat Pengangkutan Awam Larkin,Jalan Geroda Jalan Geroda 2",Malaysia
217,Malaysia,Johor Bahru,False,False,False,2554AGPJB,Klinik Mesra Plaza (Main Office),21,"Jalan Balau, Taman Melodies",,Taman Melodies,,02-07-3310830/02-07-3310788,9.00am - 1.00pm 2.00pm - 5.00pm 6.00pm - 9.30pm,9.00am - 1.00pm 2.00pm - 5.00pm 6.00pm - 9.30pm,9.00am - 1.00pm 2.00pm - 5.00pm 6.00pm - 9.30pm,9.00am - 1.00pm 2.00pm - 5.00pm,,"21 Jalan Balau, Taman Melodies Taman Melodies",Malaysia
218,Malaysia,Johor Bahru,False,False,False,2555AGPJB,Klinik Mesra Tampoi,5,"Jln Persiaran Tanjung, Susur 1",,Taman Bukit Alif,,02-07-2361516,9.00am - 1.00pm 2.00pm - 5.00pm 6.00pm - 8.00pm,9.00am - 1.00pm,Closed,Closed,,"5 Jln Persiaran Tanjung, Susur 1 Taman Bukit Alif",Malaysia
219,Malaysia,Johor Bahru,False,False,False,3768AGPJB,KLINIK MM CARE,No. 31-01,Jalan Nusaria 11/1,,Taman Nusantara,,75539915,"8.00am - 2.00pm, 3.00pm - 10.30pm","8 . 0 0 a m - 2 .00pm, 3.00pm - 10.30pm","8 . 0 0 a m - 2 . 0 0 p m , 3.00pm - 10.30pm","8 . 0 0 a m - 2 . 0 0 p m , 3.00pm - 10.30pm",,No. 31-01 Jalan Nusaria 11/1 Taman Nusantara,Malaysia
220,Malaysia,Johor Bahru,False,False,False,7046AGPJB,Klinik MM Care Pulai,5,Jalan Pulai Makmur 5/2,,Bandar Baru Kangkar Pulai,,07-5607071,8.30am - 10.30pm,8.30am - 10.30pm,8.30am - 10.30pm,8.30am - 10.30pm,,5 Jalan Pulai Makmur 5/2 Bandar Baru Kangkar Pulai,Malaysia
221,Malaysia,Johor Bahru,False,False,False,2919AGPJB,Klinik Mohan,30A,Jalan Lembah 3,,Taman Desa Jaya,,02-07-3575970,8.30am - 9.00pm,8.30am - 2.30pm,Closed,Closed,,30A Jalan Lembah 3 Taman Desa Jaya,Malaysia
222,Malaysia,Johor Bahru,False,False,False,2556AGPJB,Klinik Ng & Surgeri,7/3,Jalan Nusa Bistari 2,,Skudai,,02-07-5549928,8.30am - 12.00pm 1.00pm - 3.00pm 6.00pm - 10.30pm,Closed,8.30am - 12.00pm 1.00pm - 3.00pm 6.00pm - 10.30pm,Closed,,7/3 Jalan Nusa Bistari 2 Skudai,Malaysia
223,Malaysia,Johor Bahru,False,False,False,3684AGPJB,KLINIK ORKID,36,Jalan Seri Orkid 1,,Taman Seri Orkid,,07-5113744,8.00am - 10.30pm (Clinic closed on Fri),8.00am - 10.30pm,8.00am - 10.30pm,Closed,,36 Jalan Seri Orkid 1 Taman Seri Orkid,Malaysia
224,Malaysia,Johor Bahru,False,False,False,2559AGPJB,Klinik Perling,262,"Jalan Simbang, Taman Perling",,Johor Bahru,,02-07-2388520,8.30am - 9.30pm (Closed on Friday),8.30am - 9.30pm,8.30am - 9.30pm,Closed,,"262 Jalan Simbang, Taman Perling Johor Bahru",Malaysia
225,Malaysia,Johor Bahru,False,False,False,7294AGPJB,Klinik Procare (Bayu Puteri),39,Jalan Bayu Puteri 1/3,,Taman Bayu Puteri,,6011-19999142,7.00am - 11.00pm,7.00am - 11.00pm,7.00am - 11.00pm,7.00am - 11.00pm,,39 Jalan Bayu Puteri 1/3 Taman Bayu Puteri,Malaysia
226,Malaysia,Johor Bahru,False,False,False,7262AGPJB,Klinik Procare (Cawangan Masai) 24 Jam,88,Jln Sierra Perdana 4/1,,Taman Sierra Perdana,,6.0112E+11,24 Hours,24 Hours,24 Hours,24 Hours,,88 Jln Sierra Perdana 4/1 Taman Sierra Perdana,Malaysia
227,Malaysia,Johor Bahru,False,False,False,4052AGPJB,Klinik Shakthi & Surgeri,5,Jalan Setia Tropika,,Taman Sitia Tropika,,02-07-2323399,9.00am - 9.30pm,9.00am - 1.00pm,9.00am - 5.00pm,Closed,,5 Jalan Setia Tropika Taman Sitia Tropika,Malaysia
228,Malaysia,Johor Bahru,False,False,False,4142AGPJB,KLINIK SIA & PARTNERS,77-GF,Jalan Austin heights 3,,Taman Austin Heights,,73649505,8.30am - 10.00pm (Closed on Thurs),8.30am - 10.00pm,8.30am - 10.00pm,Closed,,77-GF Jalan Austin heights 3 Taman Austin Heights,Malaysia
229,Malaysia,Johor Bahru,False,False,False,4167AGPJB,KLINIK SIA DAN SURGERI,123,Jalan Pahlawan 1,,Taman Ungku Tun Aminah,,75563840,8.30am - 9.30pm,8.30am - 9.30pm,8.30am - 9.30pm,Closed,,123 Jalan Pahlawan 1 Taman Ungku Tun Aminah,Malaysia
230,Malaysia,Johor Bahru,False,False,False,4057AGPJB,KLINIK TAN,56,Jalan Perjiranan 2,,Bandar Datu' Onn,,73516218,8.30am - 1.00pm 2.00pm - 10.00pm,8 . 3 0 a m - 1 .00pm 2.00pm - 10.00pm,8 . 3 0 a m - 1 . 0 0 p m 2.00pm - 10.00pm,C l o s e d,,56 Jalan Perjiranan 2 Bandar Datu' Onn,Malaysia
231,Malaysia,Johor Bahru,False,False,False,5009AGPJB,Klinik Teoh,35,Jalan Harmonlum 23/12,,Taman Desa Tebrau,,02-07-3518985,7.30am - 12.00am,7.30am - 12.00am,7.30am - 12.00am,7.30am - 12.00am,,35 Jalan Harmonlum 23/12 Taman Desa Tebrau,Malaysia
232,Malaysia,Johor Bahru,False,False,False,2565AGPJB,Klinik Theesan (165),165,Jalan Harimau,,Century Garden,,02-07-3326011,8.30am - 12.00 midnight,8.30am - 12.00 midnight,8.30am - 12.00 midnight,8.30 - 12.00 midnight,,165 Jalan Harimau Century Garden,Malaysia
233,Malaysia,Johor Bahru,False,False,False,2566AGPJB,Klinik Theesan (18),18,"Jalan Kebudayaan 1, Taman Universiti",,"Skudai, Johor Bahru,",,02-07-5206005,8.30am - 10.00pm,8.30am - 10.00pm,8.30am - 10.00pm,8.30am - 10.00pm,,"18 Jalan Kebudayaan 1, Taman Universiti Skudai, Johor Bahru,",Malaysia
234,Malaysia,Johor Bahru,False,False,False,2567AGPJB,Klinik Theesan (75),75,"Jalan Dedap 6, Taman Johor Jaya",,"Johor Bahru,",,02-07-3551150,8.30am - 10.00pm,8.30am - 10.00pm,8.30am - 10.00pm,8.30am - 10.00pm,,"75 Jalan Dedap 6, Taman Johor Jaya Johor Bahru,",Malaysia
235,Malaysia,Johor Bahru,False,False,False,2654AGPJB,KLINIK YAP (Kulai),20,Jalan Kenanga 29/1,,Bandar Indahpura,,76625949,8.00am - 10.00pm,8.00am - 10.00pm,8.00am - 10.00pm,8.00am - 10.00pm,,20 Jalan Kenanga 29/1 Bandar Indahpura,Malaysia
236,Malaysia,Johor Bahru,False,False,False,2828AGPJB,Klink MM Care (Taman Nusa Bestari),65G,Jalan Bestari 12/2,,Taman Nusa Bestari,,,8.30am - 10.30pm,8.30am - 10.30pm,8.30am - 10.30pm,8.30am - 10.30pm,,65G Jalan Bestari 12/2 Taman Nusa Bestari,Malaysia
237,Malaysia,Johor Bahru,False,False,False,3527AGPJB,MediSpring Family Polyclinic (Austin),16,Jalan Austin Heights 8/9,,Jalan Austin Heights,,07-3648789,9.00am - 12.00am,9.00am - 12.00am,9.00am - 12.00am,9.00am - 12.00am,,16 Jalan Austin Heights 8/9 Jalan Austin Heights,Malaysia
238,Malaysia,Johor Bahru,False,False,False,3529AGPJB,MediSpring Family Polyclinic (Indah),5,Jalan Indah 25/1,,Taman Bukit Indah 2,,07-2445157,9.00am - 11.00pm,9.00am - 11.00pm,9.00am - 11.00pm,"9.00am - 11.00pm but Closed on CNY, Labour Day, Hari Raya",,5 Jalan Indah 25/1 Taman Bukit Indah 2,Malaysia
239,Malaysia,Johor Bahru,False,False,False,3532AGPJB,MediSpring Family Polyclinic (Kulai),7514,Jalan Enggang 19,,Bandar Putra,,07-5908793,9.00am - 11.00pm,9.00am - 11.00pm,9.00am - 11.00pm,"9.00am - 11.00pm but Closed on CNY, Labour Day, Hari Raya",,7514 Jalan Enggang 19 Bandar Putra,Malaysia
240,Malaysia,Johor Bahru,False,False,False,4168AGPJB,ORCHID FAMILY POLYCLINIC,50,Jalan Serampang,,Taman Pelangi,,73316688,8.30am - 6.00pm 10.00am - 6.00pm (Fri),1 0 . 0 0 a m - 4.00pm,10.00am - 4.00pm,Closed,,50 Jalan Serampang Taman Pelangi,Malaysia
241,Malaysia,Johor Bahru,False,False,False,4996AGPJB,Poliklinik CArrE,23,Jalan Keruing 1,,Taman Rinting,,02-07-3881140,9.00am - 10.00pm,9.00am - 10.00pm,9.00am - 10.00pm,Closed,,23 Jalan Keruing 1 Taman Rinting,Malaysia
242,Malaysia,Johor Bahru,False,False,False,2910AGPJB,Poliklinik Chu (Gelang Patah),4,Jalan Nusaria 11/17,,Taman Nasuntara,,75539720,9.00am - 10.00pm,9.00am - 10.00pm,9.00am - 10.00pm,9.00am - 10.00pm,,4 Jalan Nusaria 11/17 Taman Nasuntara,Malaysia
243,Malaysia,Johor Bahru,False,False,False,2696AGPJB,Poliklinik Chu (Kulai),6,Jalan Kenanga 29/1,,Taman Indahpura,,76600567,9.00am - 10.00pm,9.00am - 10.00pm,9.00am - 10.00pm,9.00am - 10.00pm,,6 Jalan Kenanga 29/1 Taman Indahpura,Malaysia
244,Malaysia,Johor Bahru,False,False,False,2572AGPJB,Poliklinik Chu (Skudai),6,Jalan Kebudayaan 1,,Taman Universiti,,02-07-5213188,9.00am - 10.00pm,9.00am - 10.00pm,9.00am - 10.00pm,9.00am - 10.00pm,,6 Jalan Kebudayaan 1 Taman Universiti,Malaysia
245,Malaysia,Johor Bahru,False,False,False,5350AGPJB,Poliklinik Dr Bala,86,Jalan Besar,,Taman Munshi Ibrahim,,72323386,9.00am - 9.00pm,9.00am - 9.00pm,9.00am - 9.00pm,9.00am - 9.00pm,,86 Jalan Besar Taman Munshi Ibrahim,Malaysia
246,Malaysia,Johor Bahru,False,False,False,4789AGPJB,Poliklinik Gan Sdn Bhd,34 & 34A,"Jalan Sulam, Taman Sentosa",,Johor Bahru,,02-07-3311500,24 hours,24 hours,24 hours,24 hours,,"34 & 34A Jalan Sulam, Taman Sentosa Johor Bahru",Malaysia
247,Malaysia,Johor Bahru,False,False,False,2991AGPJB,POLIKLINIK GEORGE,9,Jalan Beladau 30,,Taman Putiri Wangsa,,78671251,8.00am - 10.00pm,8.00am - 10.00pm,8.00am - 10.00pm,8.00am - 10.00pm,,9 Jalan Beladau 30 Taman Putiri Wangsa,Malaysia
248,Malaysia,Johor Bahru,False,False,False,2573AGPJB,Poliklinik John,8,Taman Seraya Kulai Besar,,Kulai,,07-6625710,8.00am - 10.00pm,8.00am - 5.00pm,Closed,Closed,,8 Taman Seraya Kulai Besar Kulai,Malaysia
249,Malaysia,Johor Bahru,False,False,False,4026AGPJB,Poliklinik Kempas Indah,15,Jalan Kempas Utama 1/2,,Taman Kempas Utama,,75628415,8.00am - 10.00am,Closed,8.00am - 10.00am,Closed,,15 Jalan Kempas Utama 1/2 Taman Kempas Utama,Malaysia
250,Malaysia,Johor Bahru,False,False,False,3027AGPJB,POLIKLINIK LEE,21,Jalan Setia 12/2,,Taman Setia Indah,,124109398,9.00am - 1.00pm 2.00pm - 6.00pm 7.30pm - 9.00pm (Clinic closed on Mondays),9 . 0 0 a m - 1 . 0 0pm 2 . 0 0 p m - 6.00pm 7.30pm - 9.00pm,9 . 0 0 a m - 1 . 0 0 p m 2 . 0 0 p m - 6 . 0 0 p m 7.30pm - 9.00pm,C l o s e d,,21 Jalan Setia 12/2 Taman Setia Indah,Malaysia
251,Malaysia,Johor Bahru,False,False,False,3691AGPJB,Poliklinik MM FamilyCare & Surgeri,5,Jalan Mutiara 1/2,,,,75590851,8.00am - 2.00pm 3.00pm - 10.00pm,8 . 0 0 a m - 2.00pm 3.00pm - 10.00pm,8 . 0 0 a m - 2 . 0 0 p m 3.00pm - 10.00pm,8 . 0 0 a m - 2 . 0 0 p m 3.00pm - 10.00pm,,5 Jalan Mutiara 1/2,Malaysia
252,Malaysia,Johor Bahru,False,False,False,2062AGPJB,Poliklinik Navin Sdn Bhd,9,"Jalan Indah 22/14, Taman Bukit Indah 2",,,,02-07-2328860,9.00am - 9.00pm,Closed,9.00am - 9.00pm,Closed,,"9 Jalan Indah 22/14, Taman Bukit Indah 2",Malaysia
253,Malaysia,Johor Bahru,False,False,False,2415AGPJB,POLIKLINIK NUSA IDAMAN,72,Jalan Susur Idaman,,Nusa Idaman,,72890298,9.00am - 9.00pm,9.00am - 9.00pm,9.00am - 9.00pm,9.00am - 9.00pm (Close on Deepavali and Thaipusam Days),,72 Jalan Susur Idaman Nusa Idaman,Malaysia
254,Malaysia,Johor Bahru,False,False,False,2578AGPJB,Poliklinik Promed & Surgeri,12,"Jalan Indah 5/4, Taman Bukit Indah",,Johor Bahru,,07-2349257 07-012-7442684,9.00am - 3.00pm 7.00pm - 9.00pm,9.00am - 3.00pm,Closed,Closed,,"12 Jalan Indah 5/4, Taman Bukit Indah Johor Bahru",Malaysia
255,Malaysia,Johor Bahru,False,False,False,5189AGPJB,POLIKLINIK SIVA,141,Jalan Jambu Air,,Bandar Indahpura,,07-6632311,8.00am - 12.00pm 1.00pm - 5.00pm 7.00pm - 10.00pm,8 . 0 0 a m - 12.00pm 1 . 0 0 p m - 5.00pm 7.00pm - 10.00pm,8 . 0 0 a m - 1 2 . 0 0 p m 1 . 0 0 p m - 5 . 0 0 p m 7.00pm - 10.00pm,C l o s e d,,141 Jalan Jambu Air Bandar Indahpura,Malaysia
256,Malaysia,Johor Bahru,False,False,False,2911AGPJB,POLIKLINIK WECARE,20,Jalan Pertama 1,,Pusat Perdagangan Danga Utama,,75504959,10.00am - 10.30pm,10.00am - 10.30pm,10.00am - 10.30pm,Closed,,20 Jalan Pertama 1 Pusat Perdagangan Danga Utama,Malaysia
257,Malaysia,Johor Bahru,False,False,False,4063AGPJB,Polyclinic Healthcare & Surgery (Gelang Patah),15,Jalan Nusaria 11/1,,Taman Nusantara,,75852756,24 Hours,24 Hours,24 Hours,24 Hours,,15 Jalan Nusaria 11/1 Taman Nusantara,Malaysia
258,Malaysia,Johor Bahru,False,False,False,2359AGPJB,Polyclinic Healthcare & Surgery (Skudai),12,Jalan Seri Orkid 1,,Taman Seri Orkid,,75712056,24 Hours,24 Hours,24 Hours,24 Hours,,12 Jalan Seri Orkid 1 Taman Seri Orkid,Malaysia
259,Malaysia,Johor Bahru,False,False,False,4107AGPJB,Polyclinic Healthcare & Surgery (Taman Perling),No. 45GF,Jln Undan 15,,Taman Perling,,177542863,12.00am - 11.00pm,12.00am - 11.00pm,12.00am - 11.00pm,12.00am - 11.00pm,,No. 45GF Jln Undan 15 Taman Perling,Malaysia
260,Malaysia,Johor Bahru,False,False,False,5590AGPJB,Polyclinic My Family (Nusajaya),No 33,Jalan Hijauan 3,,Bukit Horizon,,0186663689,8.00am - 10.00pm,8.00am - 10.00pm,8.00am - 10.00pm,8.00am - 10.00pm,,No 33 Jalan Hijauan 3 Bukit Horizon,Malaysia
261,Malaysia,Johor Bahru,False,False,False,5592AGPJB,Polyclinic My Family (Taman Munsyi Ibrahim),No 32,Jalan Dian 8,,Taman Munsyi Ibrahim,,07-2886659,9.00am - 6.00pm,9.00am - 6.00pm,9.00am - 6.00pm,9.00am - 6.00pm,,No 32 Jalan Dian 8 Taman Munsyi Ibrahim,Malaysia
262,Malaysia,Johor Bahru,False,False,False,5593AGPJB,Polyclinic My Family (Taman Pelangi Indah),19-01,Jalan Cantik 20,,Taman Pelangi Indah Ulu tiram,,07-8619863,9.00am - 10.00pm,9.00am - 10.00pm,9.00am - 10.00pm,9.00am - 10.00pm,,19-01 Jalan Cantik 20 Taman Pelangi Indah Ulu tiram,Malaysia
263,Malaysia,Johor Bahru,False,False,False,5591AGPJB,Polyclinic My Family (Taman Pulai Indah),No 41,Jalan PI 8/8,,Taman Pulai Indah,,07-5701637,8.00am - 10.00pm,8.00am - 10.00pm,8.00am - 10.00pm,8.00am - 10.00pm,,No 41 Jalan PI 8/8 Taman Pulai Indah,Malaysia
264,Malaysia,Johor Bahru,False,False,False,2581AGPJB,Polyclinic My Family 24 Hour,22,Jalan Indah 8/15,,Taman Bukit Indah,,07-2366663,24 hours,24 hours,24 hours,24 hours,,22 Jalan Indah 8/15 Taman Bukit Indah,Malaysia
265,North,Admiralty,True,True,True,5098AGP,EH Medical Family Clinic (Woodlands),785E,Woodlands Rise,#01-12,,,62511526,8.00am - 2.00pm 5.30pm - 9.00pm (Closed on Fri),8.00am - 12.30pm,8.00am - 12.30pm,Closed,,785E Woodlands Rise #01-12,Singapore
266,North,Admiralty,True,True,True,5149AGP,Frontier Medical Associates (Admiralty),691,Woodlands Drive 73,#01-04,,,63141098,"Mon & Wed 8.00am - 3.00pm 6.00pm - 9.00pm Tue, Thur & Fri 8.00am - 3.00pm",8.00am - 12.00pm,Closed,Closed,,691 Woodlands Drive 73 #01-04,Singapore
267,North,Admiralty,True,True,True,4122AGP,MyDoctor @ Admiralty,693,Woodlands Avenue 6,#01-03,,,69098365,8.30am - 2.00pm 6.00pm - 9.00pm,8.30am - 1.00pm,8.30am - 1.00pm,8.30am - 1.00pm,,693 Woodlands Avenue 6 #01-03,Singapore
268,North,Admiralty,True,True,True,5114AGP,Norwood Medical Clinic,785E,Woodlands Rise,#01-02,,,69373576,Mon & Fri 8.00am - 1.00pm 6.00pm - 7.30pm Tue - Thurs 8.00am - 1.00pm,8.00am - 1.00pm,9.00am - 1.00pm,Closed,,785E Woodlands Rise #01-02,Singapore
269,North,Ang Mo Kio,True,True,True,7267AGP,Concord Medical Clinic,713,Ang Mo Kio Avenue 6,#01-4052,,,65632935,8.30am - 1.00pm 2.00pm - 5.00pm 6.00pm - 9.00pm,8.30am - 1.00pm,8.30am - 1.00pm,Closed,,713 Ang Mo Kio Avenue 6 #01-4052,Singapore
270,North,Marsiling,True,True,True,5167AGP,Central 24-HR Clinic (Marsiling),303,Woodlands Street 31,#01-185,,,63652908,24 Hours,24 Hours,24 Hours,24 Hours,Clinic surcharge applicable,303 Woodlands Street 31 #01-185,Singapore
271,North,Marsiling,False,False,True,7250AGP,Minmed Clinic (Woodgrove),30,Woodlands Ave 1,#01-21,The Woodgrove,,88920123,9.00am - 1.00pm 2.00pm - 5.00pm 6.00pm - 9.00pm,9.00am - 1.00pm,9.00am - 1.00pm,Closed,Clinic surcharge applicable,30 Woodlands Ave 1 #01-21 The Woodgrove,Singapore
272,North,Marsiling,True,True,True,2495AGP,Woodlands Medical Centre,210,Marsiling Crescent,#01-09,,,62698888,2.00 pm - 4.30 pm 6.00 pm - 8.00pm,Closed,9.00am - 12.30pm,Closed,,210 Marsiling Crescent #01-09,Singapore
273,North,Sembawang,True,True,True,5369AGP,BestMed Family Clinic and home care,126,Canberra Street,#01-04,,,65184268,8.30am - 1.00pm 6.00pm - 9.00pm,Closed,6.00pm - 9.00pm,Closed,,126 Canberra Street #01-04,Singapore
274,North,Sembawang,True,True,True,5150AGP,Frontier Medical Associates (Canberra),105,Canberra Street,#01-11,,,62665080,Mon - Thurs 8.00am - 3.00pm 6.00pm - 9.00pm Fri 8.00am - 3.00pm,8.00am - 1.00pm,Closed,Closed,,105 Canberra Street #01-11,Singapore
275,North,Sembawang,True,True,True,2042AGP,Healthway Medical (406 Sembawang),406,Sembawang Drive,#01-820,,,65556674,"Mon & Wed 8:30am – 1:00pm 2:00pm – 5:00pm 6:00pm – 9:00pm Tues, Thurs & Fri 8:30am – 1:00pm 2:00pm – 5:00pm",8.30am - 12.30pm,8.30am - 12.30pm,8.30am - 12.30pm,Clinic surcharge applicable,406 Sembawang Drive #01-820,Singapore
276,North,Sembawang,True,True,True,1595AGP,Healthway Medical (Sun Plaza),30,Sembawang Drive,#03-20,Sun Plaza,,65551445,8.30am - 1.00pm 2.00pm - 5.00pm 6.00pm - 9.00pm,8.30am - 1.00pm,8.30am - 1.00pm,8.30am - 1.00pm,,30 Sembawang Drive #03-20 Sun Plaza,Singapore
277,North,Sembawang,True,True,True,5406AGP,Mydoctor @ Canberra,133,Canberra View,#B1-06,Canberra Plaza,,69701002,8.30am-2.00pm 6.00pm-9.00pm,9.00am-1.00pm,9.00am-1.00pm,9.00am-1.00pm,,133 Canberra View #B1-06 Canberra Plaza,Singapore
278,North,Sembawang,False,False,True,7100AGP,Pinnacle Family Clinic (Sembawang),604,Sembawang Road,#B1-03,Sembawang Shopping Centre,,67527255,Mon-Thur 9.00am - 3.30pm 5.30pm - 8.30pm Fri 9.00am - 12.00pm 2.00pm - 4.00pm,9.00am - 1.00pm,Closed,Closed,,604 Sembawang Road #B1-03 Sembawang Shopping Centre,Singapore
279,North,Sembawang,True,False,False,7327AGP,Zara Clinic,511,Canberra Rd,#02-02A,Sembawang Mart,,82984767,Mon - Thur 10.00am - 1.00pm 2.00pm - 7.00pm Fri 10.00am - 12.30pm,11.00am - 3.00pm 6.00pm - 9.00pm,11.00am - 3.00pm 6.00pm - 9.00pm,Closed,Clinic surcharge applicable,511 Canberra Rd #02-02A Sembawang Mart,Singapore
280,North,Woodlands,True,True,True,1095AGP,Acumed Medical (Woodlands),111,Woodlands St 13,#01-78,,,63627789,8.30am - 1.00pm 2.00pm - 5.00pm,8.30am - 1.00pm,Closed,Closed,Clinic surcharge applicable,111 Woodlands St 13 #01-78,Singapore
281,North,Woodlands,True,True,True,5166AGP,Central 24-HR Clinic (Woodlands),768,Woodlands Ave 6,#02-06A,,,63654895,24 Hours,24 Hours,24 Hours,24 Hours,Clinic surcharge applicable,768 Woodlands Ave 6 #02-06A,Singapore
282,North,Woodlands,True,True,True,1473AGP,Frontier Medical Associates (Woodlands),899C,Woodlands Drive 50,#01-296,,,63663631,8.00am - 1.00pm 1.30pm - 4.30pm 6.00pm - 9.00pm 8.00am - 1.00pm (WED & FRI) 1.30pm - 4.30pm (WED & FRI),8.00am - 12.00pm,CLOSED,CLOSED,,899C Woodlands Drive 50 #01-296,Singapore
283,North,Woodlands,True,False,True,7285AGP,Medipoint Medical Centre (Woodlands Branch),548,Woodlands Drive 44,#02-24,Vista Point,,68938776,"Mon & Wed 8.30am - 1.30pm 6.00pm - 8.30pm Tue, Thur & Fri 8.30am - 1.30pm",8.30am - 12.00pm,8.30am - 12.00pm,Closed,,548 Woodlands Drive 44 #02-24 Vista Point,Singapore
284,North,Woodlands,False,False,True,7022AGP,Minmed Clinic (Woodlands),6,Woodlands Square,#09-06,Woods Square,,88930123,9.00am - 1.00pm 2.00pm - 5.00pm,9.00am - 1.00pm,Closed,Closed,Clinic surcharge applicable,6 Woodlands Square #09-06 Woods Square,Singapore
285,North,Woodlands,True,True,True,5217AGP,My Family Clinic (Woodlands Glen),573,Woodlands Drive 16,#01-09,,,67321520,"Mon, Tue & Thurs 8.00am - 2.00pm 5.00pm - 9.00pm Wed & Fri 8.00am - 2.00pm",8.00am - 12.00pm,Closed,Closed,Clinic surcharge applicable,573 Woodlands Drive 16 #01-09,Singapore
286,North,Woodlands,True,True,True,5105AGP,Pinnacle Family Clinic (Woodlands),573,Woodlands Drive 16,#01-06,,,67601623,Mon 8.00am - 5.00pm 6.00pm - 10.00pm Tue - Thurs 8.00am - 3.00pm 5.00pm - 9.30pm Fri 8.00am - 3.30pm 6.00pm - 10.00pm,9.00am - 1.00pm,9.00am - 12.00pm 6.30pm - 9.30pm,Closed,,573 Woodlands Drive 16 #01-06,Singapore
287,North,Yishun,True,True,True,7160AGP,Bethesda Medical @ Yishun,293,Yishun Street 22,#01-223,,,64286081,9.00am - 1.00pm 2.00pm - 5.00pm,9.00am - 1.00pm,Closed,Closed,,293 Yishun Street 22 #01-223,Singapore
288,North,Yishun,True,True,True,5168AGP,Central 24-HR Clinic (Yishun),701A,Yishun Ave 5,#01-04,,,67597985,24 Hours,24 Hours,24 Hours,24 Hours,Clinic surcharge applicable,701A Yishun Ave 5 #01-04,Singapore
289,North,Yishun,False,False,True,7238AGP,Faith Medical (Northpoint),1,Northpoint Drive,#B1-176,Northpoint City South Wing,,63224211,8.30am - 4.30pm 6.30pm - 9.00pm,8.30am - 1.00pm,8.30am - 1.00pm,8.30am - 1.00pm,,1 Northpoint Drive #B1-176 Northpoint City South Wing,Singapore
290,North,Yishun,True,False,True,1586AGP,Healthway Medical (Yishun Ave 11),417,Yishun Ave 11,#01-322,,,67537626,8:30am - 12:30pm 2:00pm - 5:00pm 6:30pm - 9:00pm,8:30am - 12:30pm,8:30am - 12:30pm,8:30am - 12:30pm,Clinic surcharge applicable,417 Yishun Ave 11 #01-322,Singapore
291,North,Yishun,True,True,True,1605AGP,Healthway Medical (Yishun Ave 5),101,Yishun Ave 5,#01-15,,,67551345,Mon 8.00am - 1.00pm 2.00pm - 5.00pm 6.00pm - 9.00pm Tue-Fri 8.00am - 1.00pm 2.00pm - 5.00pm,8.00am - 1.00pm,8.30am - 12.30pm,8.30am - 12.30pm,Clinic surcharge applicable,101 Yishun Ave 5 #01-15,Singapore
292,North,Yishun,True,True,True,2903AGP,Healthway Medical (Yishun Ave 6),461,Yishun Ave 6,#01-05,,,62354824,8.30am - 1.00pm 2.00pm - 5.00pm 6.00pm - 9.00pm,8.30am - 1.00pm,CLOSED,CLOSED,,461 Yishun Ave 6 #01-05,Singapore
293,North,Yishun,True,True,True,4313AGP,Healthway Medical Clinic (Yishun St 72),748,Yishun Street 72,#01-230,,,68537101,8.30am - 1.00pm 2.00pm - 5.00pm,8.30am - 1.00pm,Closed,Closed,,748 Yishun Street 72 #01-230,Singapore
294,North,Yishun,True,False,True,7334AGP,HeartlandHealth (Yishun),18,Yishun Ave 9,#01-34,Junction Nine,,65142373,8.00am - 1.00pm 6.00pm - 11.00pm,8.00am - 1.00pm 6.00pm - 11.00pm,8.00am - 1.00pm 6.00pm - 11.00pm,8.00am - 1.00pm 6.00pm - 11.00pm,,18 Yishun Ave 9 #01-34 Junction Nine,Singapore
295,North,Yishun,True,True,True,7180AGP,I-Health Medical Clinic (Yishun),292,Yishun Street 22,#01-285,,,67525078,8.30am - 2.00pm 5.00pm - 10.00pm,8.30am - 2.00pm 5.00pm - 10.00pm,8.30am - 2.00pm 5.00pm - 10.00pm,8.30am - 2.00pm,Clinic surcharge applicable,292 Yishun Street 22 #01-285,Singapore
296,North,Yishun,False,False,True,7153AGP,Minmed Clinic (Yishun Ring),598,Yishun Ring Rd,#01-09,Wisteria Mall,,88940123,9.00am - 1.00pm 2.00pm - 5.00pm 6.00pm - 9.00pm,9.00am - 1.00pm,9.00am - 1.00pm,9.00am - 1.00pm 2.00pm - 5.00pm,Clinic surcharge applicable,598 Yishun Ring Rd #01-09 Wisteria Mall,Singapore
297,North,Yishun,True,True,True,5053AGP,Minmed Clinic (Yishun),1,Northpoint Drive,#02-153,Northpoint City,,89210123,9.00am - 1.00pm 2.00pm - 5.00pm 6.00pm - 9.00pm,9.00am - 1.00pm 2.00pm - 5.00pm,9.00am - 1.00pm,9.00am - 1.00pm 2.00pm - 5.00pm,Clinic surcharge applicable,1 Northpoint Drive #02-153 Northpoint City,Singapore
298,North,Yishun,True,True,True,1932AGP,My Family Clinic (Angsana Breeze @ Yishun),507,Yishun Avenue 4,#01-05,,,67530178,8.00am - 3.30pm 6.00pm - 9.30pm,8.00am - 12.00pm,8.00am - 12.00pm 6.00pm - 9.00pm,C l o s ed,Clinic surcharge applicable,507 Yishun Avenue 4 #01-05,Singapore
299,North,Yishun,True,False,True,7288AGP,Pancare Medical (Yishun 605),605,Yishun Street 61,#01-315,Nee Soon Central Meadows,,65146559,"Mon 8.30am – 1.00pm 2.00pm – 5.00pm 6.00pm – 9.00pm Tues, Wed, Thur & Fri 8.30am – 1.00pm 2.00pm – 5.00pm",8.30am – 1.00pm,Closed,Closed,,605 Yishun Street 61 #01-315 Nee Soon Central Meadows,Singapore
300,North,Yishun,True,False,True,7320AGP,Pancare Medical (Yishun),747,Yishun Street 72,#01-106,Nee Soon Central Green,,67543740,Mon & Thu 8.00am - 1.00pm 2.00pm - 5.00pm 6.00pm - 9.00pm Tue & Wed 8.00am - 1.00pm Fri 8.00am - 1.00pm 2.00pm - 5.00pm,8.00am - 2.00pm,Closed,Closed,,747 Yishun Street 72 #01-106 Nee Soon Central Green,Singapore
301,North,Yishun,True,False,False,7328AGP,Pinnacle Family Clinic (Yishun),920,Yishun Avenue 2,#01-20,Yishun Integrated Transport Hub,,62980513,"Mon, Wed & Thur 8.00am - 1.00pm 2.00pm - 4.00pm 5.00pm - 9.00pm Tue & Fri 8.00am - 1.00pm 2.00pm - 4.00pm",9.00am - 1.00pm,Closed,Closed,,920 Yishun Avenue 2 #01-20 Yishun Integrated Transport Hub,Singapore
302,North,Yishun,True,False,False,2084AGP,Public Medical Clinic & Surgery,664,Yishun Ave 4,#01-275,,,67556539,8.30am - 12.30pm 2.30pm - 4.30pm 7.00pm - 9.00pm (Closed on Fri night),9.00am - 12.00pm,Closed,Closed,,664 Yishun Ave 4 #01-275,Singapore
303,North,Yishun,True,False,True,4943AGP,Royal Care Medical Yishun Grove,675,Yishun Ave 4,#01-07,,,68152990,8.30am - 1.00pm 6.00pm - 10.00pm,8.30am - 1.00pm,8.30am - 1.00pm 6.00pm - 10.00pm,8.30am - 1.00pm 6.00pm - 10.00pm,,675 Yishun Ave 4 #01-07,Singapore
304,North,Yishun,True,False,True,4814AGP,Royal Care Medical Yishun Junction 9,317,Yishun Ave 9,#01-03,,,67107338,8.30am - 2.00pm 6.00pm - 2.00am,8.30am - 2.00am,8.30am - 2.00am,8.30am - 2.00am,,317 Yishun Ave 9 #01-03,Singapore
305,North,Yishun,True,True,True,7269AGP,Uniq Medical Clinic (Yishun),925,Yishun Central 1,#01-231,,,60220654,9.00am - 1.00pm 2.00pm - 5.00pm 6.00pm - 9.00pm,9.00am - 1.00pm,Closed,9.00am - 1.00pm,,925 Yishun Central 1 #01-231,Singapore
306,North,Yishun,True,False,True,2434AGP,United Health Family Clinic & Surgery,627,Yishun Street 61,#01-63,,,62571182,8.30am - 12.30pm 2.00pm - 4.30pm 6.30pm - 9.00pm,8.30am - 12.30pm,8.30am - 12.30pm,Closed,,627 Yishun Street 61 #01-63,Singapore
307,North,Yishun,False,False,False,2523AGP,Yishun Central Clinic,935,Yishun Central 1,#01-47,,,67536338,10.30am - 12.00pm 2.30pm - 4.00pm,Closed,Closed,Closed,,935 Yishun Central 1 #01-47,Singapore
308,North,Yishun,False,False,False,1708AGP,Yishun One Family Clinic,743,Yishun Ave 5,#01-534,,,67590950,9.00am - 1.00pm 2.00pm - 5.00pm 6.00pm - 9.00pm,9.00am - 12.30pm,9.00am - 12.30pm,Closed,,743 Yishun Ave 5 #01-534,Singapore
309,Northeast,Ang Mo Kio,True,False,True,7284AGP,CareDoc Medical Clinic,215,Ang Mo Kio Avenue 1,#01-907,,,65184771,8.30am - 1.00pm 2.00pm - 5.00pm 6.00pm - 9.00pm,8.30am - 1.00pm,Closed,Closed,,215 Ang Mo Kio Avenue 1 #01-907,Singapore
310,Northeast,Hougang,False,False,True,7279AGP,Kindred Family Clinic (Hougang),247,Hougang Ave 3,#01-456,,,65143680,"Mon, Tue & Thur 8.30am - 12.30pm 2.00pm - 5.00pm 6.00pm - 9.00pm Wed & Fri 8.30am - 12.30pm 2.00pm - 5.00pm",8.30am - 12.30pm,Closed,Closed,,247 Hougang Ave 3 #01-456,Singapore
311,Northeast,Hougang,True,False,True,7287AGP,Pancare Medical (Lor Ah Soo),124,Hougang Ave 1,#01-1448,,,63223600,Mon & Wed 8.00am – 1.00pm 2.00pm – 5.00pm 6.00pm – 9.00pm Tues & Fri 8.00am – 1.00pm 2.00pm – 5.00pm Thur 8.00am – 1.00pm,8.00am – 1.00pm,Closed,Closed,,124 Hougang Ave 1 #01-1448,Singapore
312,Northeast,Punggol,False,False,False,7283AGP,Minmed Clinic (Punggol Coast),84,Punggol Way,#01-66,Punggol Coast Mall Tower 3,,87930123,9.00am - 1.00pm 2.00pm - 5.00pm 6.00pm - 9.00pm,9.00am - 1.00pm,9.00am - 1.00pm,Closed,,84 Punggol Way #01-66 Punggol Coast Mall Tower 3,Singapore
313,Northeast,Punggol,True,False,True,7286AGP,Northshore Family Clinic (Punggol Point),432B,Northshore Drive,#01-03,,,65135620,8.30am - 9.00pm,9.00am - 9.00pm,9.00am - 9.00pm,9.00am - 9.00pm,Clinic surcharge applicable,432B Northshore Drive #01-03,Singapore
314,Northeast,Punggol,True,False,True,7281AGP,Vitacare Family Clinic @ Punggol Central,622D,Punggol Central,#01-05,,,66360805,8.30am - 1.00pm 6.00pm - 10.00pm,8.00am - 12.00pm,8.00am - 3.00pm,Closed,Clinic surcharge applicable,622D Punggol Central #01-05,Singapore
315,Northeast,Ang Mo Kio,True,True,True,2737AGP,1 Medical Teck Ghee,410,Ang Mo Kio Ave 10,#01-837,Teck Ghee Square,,62517030,7.00am - 11.00pm,7.00am - 1.00pm 6.00pm - 11.00pm,7.00am - 1.00pm 6.00pm - 11.00pm,7.00am - 1.00pm 6.00pm - 11.00pm,,410 Ang Mo Kio Ave 10 #01-837 Teck Ghee Square,Singapore
316,Northeast,Ang Mo Kio,True,True,False,5113AGP,Clarion Medical,202,Ang Mo Kio Ave 3,#01-1676,Ang Mo Kio View,,63530818,8.00am - 1.00pm 2.00pm - 10.00pm,8.00am - 1.00pm 2.00pm - 6.00pm,8.00am - 1.00pm 2.00pm - 6.00pm,9.00am - 1.00pm 2.00pm - 6.00pm,Clinic surcharge applicable,202 Ang Mo Kio Ave 3 #01-1676 Ang Mo Kio View,Singapore
317,Northeast,Ang Mo Kio,True,True,True,4992AGP,DA Clinic @ Ang Mo Kio,525,Ang Mo Kio Ave 10,#01-2407,,,31650147,8.00am - 12.00am,8.00am - 12.00am,8.00am - 12.00am,8.00am - 12.00am,Clinic surcharge applicable,525 Ang Mo Kio Ave 10 #01-2407,Singapore
318,Northeast,Ang Mo Kio,True,True,True,1446AGP,Family Medicare Clinic & Surgery,721,Ang Mio Kio Ave 8,#01-2815,,,64566582,8.30am - 12.00pm 2.00pm - 4.30pm 7.00pm - 9.00pm,8.30am-12.00pm,Closed,Closed,,721 Ang Mio Kio Ave 8 #01-2815,Singapore
319,Northeast,Ang Mo Kio,True,False,True,1468AGP,Frontier Medical Associates (Ang Mo Kio),163,Ang Mo Kio Ave 4,#01-426,,,64532571,8.00am - 4.30pm 6.00pm - 9.00pm (no evening service on Tues and Fri),8.30am - 1.00pm,Closed,Closed,,163 Ang Mo Kio Ave 4 #01-426,Singapore
320,Northeast,Ang Mo Kio,True,True,True,1936AGP,Healthway Medical (Ang Mo Kio Ave 1),330,Ang Mo Kio Ave 1,#01-1803,,,65530100,Mon & Tue 9.00am - 1.00pm 2.00pm - 5.00pm 6.00pm - 9.00pm Wed - Fri 9.00am - 1.00pm 2.00pm - 5.00pm,9.00am - 1.00pm,9.00am - 1.00pm,9.00am - 1.00pm,Clinic surcharge applicable,330 Ang Mo Kio Ave 1 #01-1803,Singapore
321,Northeast,Ang Mo Kio,True,True,True,2041AGP,Healthway Medical (Ang Mo Kio Ave 10),452,Ang Mo Kio Ave 10,#01-1787,,,64516558,Mon-Thurs 8.00am - 1.00pm 2.00pm - 5.00pm 6.00pm - 9.00pm Fri 8.00am - 1.00pm 2.00pm - 5.00pm,8.00am - 1.00pm 2.00pm - 5.00pm,8.00am - 1.00pm,8.00am - 1.00pm 2.00pm - 5.00pm,Clinic surcharge applicable,452 Ang Mo Kio Ave 10 #01-1787,Singapore
322,Northeast,Ang Mo Kio,True,True,True,1588AGP,Healthway Medical (Ang Mo Kio Ave 8),721,Ang Mo Kio Avenue 8,#01-2805,,,64554629,Mon 8.00am - 3.00pm 6.00pm - 9.00pm Tue-Fri 8.00am - 3.00pm,8.30am - 12.30pm,Closed,Closed,Clinic surcharge applicable,721 Ang Mo Kio Avenue 8 #01-2805,Singapore
323,Northeast,Ang Mo Kio,True,True,True,1718AGP,KI Medical Clinic,416,Ang Mo Kio Ave 10,#01-975,,,64554475,8.00am - 12.30pm 2.30pm - 4.30pm (Fri Closed) 6.00pm - 9.00pm,8.00am - 12.00pm 6.00pm - 8.30pm,8.00am - 12.00pm 6.00pm - 8.30pm,8.00am - 12.00pm Open on Selected Public Holidays,,416 Ang Mo Kio Ave 10 #01-975,Singapore
324,Northeast,Ang Mo Kio,False,False,True,7006AGP,Minmed Clinic (Ang Mo Kio),53,Ang Mo Kio Avenue 3,#03-25,AMK Hub,,85940123,9.00am - 1.00pm 2.00pm - 5.00pm 6.00pm - 9.00pm,9.00am - 1.00pm,9.00am - 1.00pm,9.00am - 1.00pm 2.00pm - 5.00pm,Clinic surcharge applicable,53 Ang Mo Kio Avenue 3 #03-25 AMK Hub,Singapore
325,Northeast,Ang Mo Kio,True,False,True,2314AGP,Tan Teoh Clinic & Surgery (Ang Mo Kio),302,Ang Mo Kio Ave 3,#01-1846,,,64520818,8.30am - 12.00pm 2.30pm - 4.30pm 7.00pm - 9.00pm,9.00am - 12.00pm,9.00am - 12.00pm,Closed,,302 Ang Mo Kio Ave 3 #01-1846,Singapore
326,Northeast,Ang Mo Kio,True,True,False,7246AGP,Thye Hua Kwan Family Clinic,17,Ang Mo Kio Ave 9,#01-06,,,64551009,8.30am - 12.00pm 1.30pm - 5.00pm,8.30am - 12.00pm,Closed,Closed,,17 Ang Mo Kio Ave 9 #01-06,Singapore
327,Northeast,Ang Mo Kio,True,False,False,7303AGP,Ultimed Clinic (Amk Ave 6),727,Ang Mo Kio Ave 6,#01-4250,,,68835045,8.30am – 1.00pm 2.00pm – 5.30pm,8.30am - 1.00pm,Closed,Closed,,727 Ang Mo Kio Ave 6 #01-4250,Singapore
328,Northeast,Ang Mo Kio,True,True,True,2468AGP,Well Family Clinic & Surgery,555,Ang Mo Kio Ave 10,#01-1948,,,64549519,8.00am - 2.00pm 3.00pm - 11.00pm 3.00pm - 10.00pm (Friday),8.00am - 1.00pm 3.00pm - 11.00pm,8.00am - 1.00pm 3.00pm - 11.00pm,8.00am - 1.00pm 3.00pm - 11.00pm,,555 Ang Mo Kio Ave 10 #01-1948,Singapore
329,Northeast,Hougang,False,False,False,7297AGP,A1 Medical Clinic (Kovan),211,Hougang St 21,#01-287,,,60470048,8.00am - 1.00pm 6.30pm - 10.00pm,9.00am - 12.00pm,9.00am - 12.00pm,Closed,Clinic surcharge applicable,211 Hougang St 21 #01-287,Singapore
330,Northeast,Hougang,True,True,True,1203AGP,Central 24-HR Clinic (Hougang),681,Hougang Ave 8,#01-829,,,63876965,24 Hours,24 Hours,24 Hours,24 Hours,Clinic surcharge applicable,681 Hougang Ave 8 #01-829,Singapore
331,Northeast,Hougang,True,False,True,1371AGP,Drs Lim & Chan Clinic (Hougang),106,Hougang Ave 1,#01-1235,,,62800990,"8.30am - 12.30pm 2.00pm - 5.00pm 7.00pm - 9.00pm (Closed on Tues & Wed pm) (Closed on Mon, Thurs & Fri night)",8.30am - 12.30pm,8.30am - 12.30pm,Closed,,106 Hougang Ave 1 #01-1235,Singapore
332,Northeast,Hougang,True,False,True,4754AGP,Family Care Medical Centre Pte Ltd,916,Hougang Ave 9,#01-08,,,63855177,8.30am - 12.30pm 2.00pm - 4.30pm 6.30pm - 8.30pm (Closed on Friday Night),8.30am - 12.30pm,Closed,Closed,,916 Hougang Ave 9 #01-08,Singapore
333,Northeast,Hougang,True,True,True,1470AGP,Frontier Medical Associates (Buangkok),982,Buangkok Crescent,#01-03,,,63152913,8.30am - 8.30pm 8.30am - 1.30pm (Friday),8.30am - 1.00pm,Closed,Closed,,982 Buangkok Crescent #01-03,Singapore
334,Northeast,Hougang,False,False,True,7245AGP,Healthway Medical (Hougang Avenue 1),106,Hougang Ave 1,#01-1225,,,62843022,8.30am - 12.00pm 1.00pm - 4.30pm,8.30am - 12.00pm,Closed,Closed,,106 Hougang Ave 1 #01-1225,Singapore
335,Northeast,Hougang,True,True,True,1579AGP,Healthway Medical (Hougang Central),90,Hougang Ave 10,#04-06,Hougang Mall,,63437620,"Mon, Wed & Fri 9:00am - 1:00pm 2:00pm - 5:00pm 6:00pm - 9:00pm Tue & Thurs 9:00am - 1:00pm 2:00pm - 5:00pm",9:00am - 1:00pm,9:00am - 1:00pm,Closed,,90 Hougang Ave 10 #04-06 Hougang Mall,Singapore
336,Northeast,Hougang,True,True,True,5011AGP,iDOC Clinic,21,Hougang Street 51,#01-43,,,69093485,8.30am - 12.30pm 2.00pm - 5.00pm 6.30pm - 9.30pm,8.30am - 1.00pm,8.30am - 1.00pm,Closed,Clinic surcharge applicable,21 Hougang Street 51 #01-43,Singapore
337,Northeast,Hougang,True,False,False,1677AGP,Joash Family Clinic & Surgery,1030,Upper Serangoon Road,,,,62827371,9.00am - 4.00pm 6.30pm - 9.30pm,9.00am - 1.00pm,Closed,Closed,,1030 Upper Serangoon Road,Singapore
338,Northeast,Hougang,True,False,True,7315AGP,Kindred Family Clinic (Kovan),208,Hougang St 21,#01-209,,,63125167,Mon - Fri 8.30am - 1.00pm 2.00pm - 5.00pm 6.00pm - 9.00pm,8.30am - 1.00pm,8.30am - 1.00pm,8.30am - 1.00pm,Clinic surcharge applicable,208 Hougang St 21 #01-209,Singapore
339,Northeast,Hougang,True,True,True,1928AGP,My Family Clinic (Hougang Central),804,Hougang Central,#01-118,,,63852117,8.00am - 10.00pm,8.00am - 10.00pm,8.00am - 10.00pm,8.00am - 10.00pm,Clinic surcharge applicable,804 Hougang Central #01-118,Singapore
340,Northeast,Hougang,True,True,True,7166AGP,Norwood Medical Hougang,365B,Upper Serangoon Rd,#01-1066,,,65924532,8.00am - 7.30pm,8.00am - 6.00pm,2.00pm - 6.00pm,9.00am - 1.00pm,,365B Upper Serangoon Rd #01-1066,Singapore
341,Northeast,Hougang,True,True,True,4957AGP,PanHealth Family Clinic (Hougang),932B,Hougang Ave 9,#01-02,,,66101496,Mon-Thur: 8.30am - 12.45pm 5.00pm - 9.15pm Fri: 8.30am - 12.45pm,8.30am - 12.45pm,Closed,Closed,,932B Hougang Ave 9 #01-02,Singapore
342,Northeast,Hougang,True,True,True,5207AGP,Pinnacle Family Clinic (Buangkok Square),991,Buangkok Link,#02-05,Buangkok Square,,69099203,Mon 8.00am - 1.00pm 2.00pm - 5.00pm 6.00pm - 10.00pm Tue - Fri 8.00am - 12.00pm 1.00pm - 3.00pm 6.00pm - 9.00pm,9.00am - 1.00pm,9.00am - 12.00pm,Closed,,991 Buangkok Link #02-05 Buangkok Square,Singapore
343,Northeast,Hougang,True,True,True,7147AGP,Pinnacle Family Clinic (Hougang),356,Hougang Avenue 7,#01-791,,,67527255,Mon 8.00am - 1.00pm 2.00pm - 4.00pm Tue - Fri 8.00am - 1.00pm 2.00pm - 3.30pm,9.00am - 1.00pm,Closed,Closed,,356 Hougang Avenue 7 #01-791,Singapore
344,Northeast,Hougang,False,False,False,2072AGP,Primecare Medical Clinic,681,Hougang Ave 8,#01-823,,,63863007,8.30am - 12.30pm 2.00pm - 4.30pm 7.00pm - 9.00pm (Closed on Fri night),8.30am - 12.30pm,Closed,Closed,,681 Hougang Ave 8 #01-823,Singapore
345,Northeast,Hougang,True,False,True,2260AGP,Sterling Clinic & Surgery,3,Lorong Lew Lian,#01-64,,,62849971,9.00am - 12.30pm 2.00pm - 4.30pm 7.00pm - 9.00pm (Closed on Tues & Thurs night),9.00am - 12.30pm,9.00am - 12.30pm,9.00am - 12.30pm,,3 Lorong Lew Lian #01-64,Singapore
346,Northeast,Macpherson,False,False,True,7217AGP,Care For You Medical Clinic,86,Circuit Rd,#01-1003,,,66127196,8.00am - 1.00pm 2.00pm - 5.00pm,8.00am - 12.00pm,Closed,Closed,,86 Circuit Rd #01-1003,Singapore
347,Northeast,Macpherson,True,True,True,7278AGP,Frontier Medical (Circuit Road),64,Circuit Rd,#01-339,,,67464115,"Mon, Wed & Thur 8.00am - 1.00pm 2.00pm - 5.30pm 6.00pm - 9.00pm Tue 8.00am - 1.00pm 2.00pm - 5.30pm Fri 8.00am - 1.00pm",8.00am - 1.00pm,Closed,Closed,,64 Circuit Rd #01-339,Singapore
348,Northeast,Macpherson,True,True,True,3430AGP,Heartland Health (Circuit Road),88,Circuit Road,#01-965,,,65478840,7.00am - 1.00pm 6.00pm - 11.00pm,7.00am - 1.00pm 6.00pm - 11.00pm,7.00am - 1.00pm 6.00pm - 11.00pm,7.00am - 1.00pm 6.00pm - 11.00pm,,88 Circuit Road #01-965,Singapore
349,Northeast,Macpherson,False,False,False,7306AGP,Kindred Family Clinic (Macpherson),76,Circuit Road,#02-08,,,62351182,Mon - Thur 8.30am - 1.00pm 2.00pm - 5.00pm 6.00pm - 9.00pm Fri 8.30am - 1.00pm 2.00pm - 5.00pm,8.30am - 1.00pm,8.30am - 1.00pm,Closed,Clinic surcharge applicable,76 Circuit Road #02-08,Singapore
350,Northeast,Potong Pasir,True,True,True,5208AGP,DA Clinic @ Potong Pasir,51,Upper Serangoon Road,#01-53,The Poiz Centre,,3165 0139,8.30am - 12.00pm 1.00pm - 4.00pm 6.00pm - 9.00pm,8.30am - 12.00pm,8.30am-12.00pm 6.00pm - 9.00pm,8.30am-12.00pm 6.00pm - 9.00pm,Clinic surcharge applicable,51 Upper Serangoon Road #01-53 The Poiz Centre,Singapore
351,Northeast,Potong Pasir,False,False,False,1509AGP,Goh Medical Clinic,136,Potong Pasir Ave 3,#01-164,,,62827886,"8.30am - 12.00pm 2.00pm - 4.30pm 6.30pm - 8.30pm (Closed on Wed, Thur & Fri night)",8.30am - 12.00pm 2.00pm - 4.30pm,Closed,9.00am - 12.00pm,,136 Potong Pasir Ave 3 #01-164,Singapore
352,Northeast,Potong Pasir,True,True,True,5422AGP,Our Woodleigh Family Clinic,115B,Alkaff Crescent,#01-05,,,69700560,8.30am-1.45pm 5.30pm-8.45pm,8.30am-12.15pm,8.30am-12.15pm 5.30pm-8.45pm,Closed,Clinic surcharge applicable,115B Alkaff Crescent #01-05,Singapore
353,Northeast,Potong Pasir,True,False,True,5121AGP,Potong Pasir Medical Clinic,148,Potong Pasir Avenue 1,#01-55,,,62824384,8.30am - 12.30pm 2.00pm - 4.30pm 6.00pm - 9.00pm,8.30am - 12.30pm,8.30am - 12.30pm,Closed,,148 Potong Pasir Avenue 1 #01-55,Singapore
354,Northeast,Potong Pasir,True,True,True,5465AGP,The Bidadari Clinic,115B,Alkaff Crescent,#01-11,,,65183868,8.30am - 12.30pm 1.00pm - 5.00pm,8.30am - 12.30pm,Closed,Closed,Clinic surcharge applicable,115B Alkaff Crescent #01-11,Singapore
355,Northeast,Punggol,True,True,True,5179AGP,Calrose Medical Family Clinic,231A,Sumang Lane,#01-05,Matilda Court Singapore,,69571750,8.30am - 1.00pm 6.00pm - 9.30pm,8.30am-1.00pm,6.00pm-09.30pm,Closed,,231A Sumang Lane #01-05 Matilda Court Singapore,Singapore
356,Northeast,Punggol,True,True,True,1596AGP,Healthway Medical (Punggol Field),168,Punggol Field,#02-07A,Punggol Plaza,,63153493,Mon 8:30am - 5:00pm 6:00pm - 10:00pm Tue - Fri 8:30am - 12:30pm 2:00pm - 5:00pm 6:00pm - 10:00pm,8:30am - 12:30pm,9:00am - 12:30pm,9:00am - 12:30pm,Clinic surcharge applicable,168 Punggol Field #02-07A Punggol Plaza,Singapore
357,Northeast,Punggol,True,True,True,4983AGP,Medi Healthcare Clinic (Punggol),218,Sumang Walk,#01-02,,,64448748,8.30am - 1.00pm 2.00pm - 4.30pm 6.30pm - 9.30pm,8.30am - 1.00pm,8.30am - 1.00pm,Closed,Clinic surcharge applicable,218 Sumang Walk #01-02,Singapore
358,Northeast,Punggol,True,True,True,4764AGP,Minmed Clinic (Punggol),83,Punggol Central,#02-15,Waterway Point,,88140123,8.30am - 9.00pm,8.30am - 9.00pm,8.30am - 9.00pm,8.30am - 9.00pm,Clinic surcharge applicable,83 Punggol Central #02-15 Waterway Point,Singapore
359,Northeast,Punggol,True,False,True,1923AGP,Mutual Healthcare Medical Clinic (Punggol),106A,Punggol Field,#01-546,,,63155036,8.30am - 12.30pm 2.00pm - 4.00pm 6.30pm - 9.30pm,8.30am - 12.30pm,8.30am - 12.30pm,9.00am - 12.00pm,Clinic surcharge applicable,106A Punggol Field #01-546,Singapore
360,Northeast,Punggol,True,True,True,1930AGP,My Family Clinic (Punggol Central),301,Punggol Central,#01-02,,,68537351,"Mon, Tue & Thur 8.30am - 1.00pm 2.00pm - 5.00pm 6.00pm - 9.00pm Wed & Fri 8.30am - 1.00pm 2.00pm - 5.00pm",8.30am - 1.00pm,Closed,Closed,Clinic surcharge applicable,301 Punggol Central #01-02,Singapore
361,Northeast,Punggol,True,True,True,4777AGP,PanHealth Family Clinic,312B,Sumang Link,#01-03,,,69660595,"Mon, Tue, Thur & Fri 8.30am - 12.15pm 2.30pm - 4.15pm 6.30pm - 9.15pm Wed 8.30am - 12.15pm 2.30pm - 4.15pm",8.30am - 12.15pm,8.30am - 12.15pm,Closed,Clinic surcharge applicable,312B Sumang Link #01-03,Singapore
362,Northeast,Punggol,False,False,True,4158AGP,Pinnacle Family Clinic (Northshore Plaza 1),407,Northshore Drive,#02-18,,,65189586,Mon 9.00am - 5.00pm 6.00pm - 9.00pm Tue - Thurs 9.00am - 2.00pm 3.00pm - 5.00pm 6.00pm - 9.00pm Fri 9.00am - 3.00pm 6.00pm - 9.00pm,9.00am - 1.00pm,9.00am - 12.00pm,Closed,,407 Northshore Drive #02-18,Singapore
363,Northeast,Punggol,True,False,True,2085AGP,Punggol Family Clinic,322,Sumang Walk,#01-03,,,63439989,8.00am - 1.00pm 2.00pm - 5.00pm 6.00pm - 10.00pm,8.00am - 1.00pm 2.00pm - 5.00pm,8.00am - 1.00pm 2.00pm - 5.00pm,8.00am - 1.00pm 2.00pm - 5.00pm,,322 Sumang Walk #01-03,Singapore
364,Northeast,Punggol,False,False,False,7310AGP,Unihealth 24-Hr Clinic (Punggol),88,Punggol Way,#02-122,Punggol Coast Mall,,63484602,24 Hours,24 Hours,24 Hours,24 Hours,Clinic surcharge applicable,88 Punggol Way #02-122 Punggol Coast Mall,Singapore
365,Northeast,Seletar,False,False,True,7273AGP,Our Fernvale Family Clinic,465,Fernvale Road,#01-04,,,65929833,8.00am - 1.00pm 5.30pm - 9.00pm,3.00pm - 6.00pm,8.00am - 1.00pm 5.30pm - 9.00pm,Closed,Clinic surcharge applicable,465 Fernvale Road #01-04,Singapore
366,Northeast,Sengkang,True,True,True,4392AGP,Acumed Medical (Sengkang),Blk 215C,Compassvale Drive,#01-02,,,63850113,"Mon & Wed 8.30am - 1.00pm 5.30pm - 8.30pm Tue, Thur & Fri 8.30am - 1.00pm",8.30am - 1.00pm,9.00am - 12.00pm,9.00am - 12.00pm,Clinic surcharge applicable,Blk 215C Compassvale Drive #01-02,Singapore
367,Northeast,Sengkang,True,True,True,5180AGP,DA Clinic @ Anchorvale,351,Anchorvale road,#01-01,,,3165 0144,8.30am-12.00pm 1.00pm-9.00pm,8.30am - 12.00pm,8.30am - 12.00pm,8.30am - 12.00pm,Clinic surcharge applicable,351 Anchorvale road #01-01,Singapore
368,Northeast,Sengkang,True,True,True,1573AGP,Healthway Medical (Anchorvale),308,Anchorvale Road,#01-03,,,63123106,"Mon & Thurs 8:30am – 1:00pm 2:00pm – 5:00pm 6:00pm – 9:00pm Tues, Wed & Fri 8:30am – 1:00pm 2:00pm – 5:00pm",8:30am – 1:00pm,Closed,Closed,,308 Anchorvale Road #01-03,Singapore
369,Northeast,Sengkang,True,True,True,1578AGP,Healthway Medical (Compassvale),267,Compassvale Link,#01-04,,,63438770,"Mon & Wed 8:30am - 1:00pm 2:00pm - 5:00pm 6:00pm - 9:00pm Tue, Thur & Fri 8:30am - 1:00pm 2:00pm - 5:00pm",8:30am - 1:00pm,Closed,8:30am - 1:00pm,Clinic surcharge applicable,267 Compassvale Link #01-04,Singapore
370,Northeast,Sengkang,True,True,True,1592AGP,Healthway Medical (Rivervale),118,Rivervale Drive,#02-17,Rivervale Plaza,,68812689,8.00am - 10.00pm,8.00am - 10.00pm,8.00am - 10.00pm,8.00am - 10.00pm,Clinic surcharge applicable,118 Rivervale Drive #02-17 Rivervale Plaza,Singapore
371,Northeast,Sengkang,False,False,True,7154AGP,Minmed Clinic (Buangkok),70,Compassvale Bow,#02-13,,,86610123,9.00am - 1.00pm 2.00pm - 5.00pm 6.00pm - 9.00pm,9.00am - 1.00pm,9.00am - 1.00pm,9.00am - 1.00pm 2.00pm - 5.00pm,Clinic surcharge applicable,70 Compassvale Bow #02-13,Singapore
372,Northeast,Sengkang,True,True,True,4916AGP,Minmed Clinic (Sengkang),1,Sengkang Square,#04-13,Compass One,,88910123,8.30am - 9.00pm,8.30am - 9.00pm,8.30am - 9.00pm,8.30am - 9.00pm,Clinic surcharge applicable,1 Sengkang Square #04-13 Compass One,Singapore
373,Northeast,Sengkang,True,True,True,1922AGP,Mutual Healthcare Medical Clinic (Anchorvale),319B,Anchorvale Drive,#01-92,,,64893833,8.30am - 12.30pm 2.00pm - 4.00pm 6.30pm - 9.30pm,8.30am - 12.30pm,8.30am - 12.30pm,9.00am - 12.00pm,Clinic surcharge applicable,319B Anchorvale Drive #01-92,Singapore
374,Northeast,Sengkang,True,True,True,1924AGP,Mutual Healthcare Medical Clinic (Compassvale),205A,Compassvale Lane,#01-53,,,65473593,8.30am - 12.30pm 2.00pm - 4.00pm 6.30pm - 9.30pm,8.30am - 12.30pm,8.30am - 12.30pm,9.00am - 12.00pm,Clinic surcharge applicable,205A Compassvale Lane #01-53,Singapore
375,Northeast,Sengkang,True,True,True,5219AGP,My Family Clinic (Anchorvale),326A,Anchorvale Road,#01-260,,,67023963,8.00am - 2.00pm 6.00pm - 9.00pm,8.00am - 2.00pm,Closed,Closed,Clinic surcharge applicable,326A Anchorvale Road #01-260,Singapore
376,Northeast,Sengkang,True,True,True,1931AGP,My Family Clinic (Rivervale Mall),11,Rivervale Crescent,#02-11A,Rivervale Mall,,68811978,8.00am - 2.00pm,Closed,Closed,Closed,Clinic surcharge applicable,11 Rivervale Crescent #02-11A Rivervale Mall,Singapore
377,Northeast,Sengkang,True,True,True,5000AGP,Pinnacle Family Clinic (Compassvale),289C,Compassvale Crescent,#01-04,,,63861089,Mon 8.00am - 1.00pm 2.00pm - 5.00pm 6.00pm - 10.00pm Tue - Fri 8.00am - 1.00pm 2.00pm - 4.00pm 6.00pm - 9.30pm,9.00am - 1.00pm,9.00am - 12.00pm 6.30pm - 9.30pm,Closed,,289C Compassvale Crescent #01-04,Singapore
378,Northeast,Sengkang,True,True,True,7254AGP,Pinnacle Family Clinic (Sengkang),170A,Sengkang East Drive,#01-06,,,69700587,"Wed & Fri 8.00am - 3.00pm Mon, Tue & Thurs 8.00am - 3.00pm 6.00pm - 9.00pm",9.00am - 1.00pm,Closed,Closed,,170A Sengkang East Drive #01-06,Singapore
379,Northeast,Sengkang,True,True,True,4272AGP,Q & M Medical Clinic (Buangkok MRT),10,Sengkang Central,#01-02,,,62429133,9.00am - 2.00pm 6.00pm - 9.00pm,9 . 0 0 a m - 2 . 0 0 p m,9.00am - 2.00pm,Closed,,10 Sengkang Central #01-02,Singapore
380,Northeast,Sengkang,True,False,True,2384AGP,The Olive Tree Family Clinic & Surgery Pte Ltd,303,Anchorvale Link,#01-02,,,63888697,Mon-Tue 8.30am - 4.40pm 6.30pm - 8.40pm Thurs 8.30am - 1.40pm 6.30pm - 9.10pm Wed & Fri 8.30am - 4.40pm,8.30am-12.40pm,Closed,Closed,,303 Anchorvale Link #01-02,Singapore
381,Northeast,Serangoon,True,True,True,7170AGP,I-Health Medical Clinic (Serangoon North),152,Serangoon North Ave 1,#01-320,,,69705845,8.30am - 2.00pm 5.00pm - 10.00pm,8.30am - 2.00pm 5.00pm - 10.00pm,8.30am - 2.00pm 5.00pm - 10.00pm,8.30am - 2.00pm 5.00pm - 10.00pm,Clinic surcharge applicable,152 Serangoon North Ave 1 #01-320,Singapore
382,Northeast,Serangoon,True,True,True,2904AGP,Affinity Medical Clinic,253,Serangoon Central Drive,#01-187,,,62808080,"Mon, Tue, Thurs, Fri 8.30am - 1.30pm 2.00pm - 4.30pm 6.00pm - 9.30pm Wed 8.30am - 1.30pm",8.30am - 1.30pm,8.30am - 1.30pm,Closed,Clinic surcharge applicable,253 Serangoon Central Drive #01-187,Singapore
383,Northeast,Serangoon,False,False,True,7191AGP,Bartley Clinic,187,Upper Paya Lebar Rd,,,,60221661,8.30am - 1.00pm 2.00pm - 5.00pm,8.30am - 12.30pm,Closed,Closed,,187 Upper Paya Lebar Rd,Singapore
384,Northeast,Serangoon,False,False,True,7228AGP,Claremont Medical (Serangoon),28,Serangoon North Ave 1,#01-61,Affinity @ Serangoon,,69808804,8.30am - 12.30pm 1.30pm - 5.30pm,Closed,Closed,Closed,,28 Serangoon North Ave 1 #01-61 Affinity @ Serangoon,Singapore
385,Northeast,Serangoon,True,True,True,1295AGP,Comfort Clinic & Surgery,214,Serangoon Ave 4,#01-100,,,62807271,8.30am - 12.00pm 2.00pm - 3.30pm 6.30pm - 8.30pm (Closed on Fri night),8.30am - 12.00pm,8.30am - 12.00pm,Closed,,214 Serangoon Ave 4 #01-100,Singapore
386,Northeast,Serangoon,True,False,True,1372AGP,Drs Lim & Chan Clinic (Lew Lian),2,Lorong Lew Lian,#01-50,,,62803009,8.30am - 12.30pm 2.00pm - 5.00pm 7.00pm- 9.00pm (Closed on Wed pm),8.30am - 12.30pm,8.30am - 12.30pm,Closed,,2 Lorong Lew Lian #01-50,Singapore
387,Northeast,Serangoon,True,False,True,1442AGP,Family Healthcare Clinic & Surgery (Serangoon North),151,Serangoon North Ave 2,#01-35,,,62889557,8.30am - 12.00pm 6.45pm - 9.00pm (Closed on Thurs & Fri night),Closed,Closed,Closed,,151 Serangoon North Ave 2 #01-35,Singapore
388,Northeast,Serangoon,True,False,True,7291AGP,Keystone Clinic & Surgery (Serangoon),304,Serangoon Ave 2,#01-10,,,60220772,8.00am - 8.00pm,8.00am - 8.00pm,8.00am - 8.00pm,8.00am - 8.00pm,Clinic surcharge applicable,304 Serangoon Ave 2 #01-10,Singapore
389,Northeast,Serangoon,True,True,True,1890AGP,Mediline Wei Min Clinic (Serangoon Garden/Kensington Park),14,Kensington Park Road,,,,62886029,8.00am - 10.00pm,8.00am - 10.00pm,8.00am - 10.00pm,8.00am - 10.00pm,Clinic surcharge applicable,14 Kensington Park Road,Singapore
390,Northeast,Serangoon,True,True,True,2056AGP,Pinnacle Family Clinic (Serangoon North),518,Serangoon North Ave 4,#B1-208,,,62193910,Mon to Thurs 8.00am - 1.00pm 2.00pm - 5.00pm Fri 8.00am - 1.00pm,Closed,Closed,Closed,,518 Serangoon North Ave 4 #B1-208,Singapore
391,Northeast,Serangoon,True,True,True,4274AGP,Q & M Medical Family Clinic (Serangoon),261,Serangoon Central Drive,#01-29,,,64882336,"Mon, Wed & Fri 8.00am - 1.00pm 2.00pm - 5.00pm Tue & Thurs 8.00am - 1.00pm 2.00pm - 5.00pm 6.00pm - 9.30pm",8.00am - 1.00pm,Closed,Closed,Clinic surcharge applicable,261 Serangoon Central Drive #01-29,Singapore
392,Northeast,Serangoon,True,True,True,2158AGP,SG Clinic Family Practice,84,Serangoon Garden Way,,,,63821988,9.00am - 1.00pm 2.00pm - 4.30pm 6.30pm - 8.30pm,9.00am - 12.30pm,9.00am - 12.30pm,9.00am - 12.30pm,,84 Serangoon Garden Way,Singapore
393,Northeast,Serangoon,True,False,False,2280AGP,T H Chia Medical Practice Pte Ltd,151,Serangoon North Ave 2,#01-19,,,62813268,8.30am - 12.00pm 2.00pm- 4.00pm 6.30pm - 8.30pm,9.00am - 12.00pm,9.00am - 12.00pm,Closed,,151 Serangoon North Ave 2 #01-19,Singapore
394,Northeast,Serangoon,True,True,True,4716AGP,The Family Physician Clinic,542B,Serangoon North Ave 3,#01-02,,,65551828,8.30am - 4.00pm 6.00pm - 10.00pm,9.00am - 1.00pm,9.00am - 1.00pm,Closed,Clinic surcharge applicable,542B Serangoon North Ave 3 #01-02,Singapore
395,Northeast,Serangoon,True,False,True,2460AGP,W P Sim Family Clinic & Surgery,153,Serangoon North Ave 1,#01-548,,,62889924,9.00am - 12.30pm 2.00pm - 3.00pm 6.30pm - 9.00pm,9.00am - 12.30pm,Closed,Closed,,153 Serangoon North Ave 1 #01-548,Singapore
396,Northeast,Tai Seng,False,False,True,7102AGP,Bethesda Medical @ Macpherson,601,Macpherson Road,#01-03/04,Grantral Mall,,69046678,8.30am - 1.00pm 2.00pm - 5.30pm,8.30am - 1.00pm,Closed,Closed,,601 Macpherson Road #01-03/04 Grantral Mall,Singapore
397,Northeast,Tai Seng,True,False,True,2289AGP,Tai Seng Clinic,11,Irving Place,#01-10,Tai Seng Point,,63844727,8.30am - 12.30pm 2.00pm - 4.30pm,8.30am - 12.30pm 2.00pm - 4.00pm,9.00am - 12.00pm,Closed (Please call to check),,11 Irving Place #01-10 Tai Seng Point,Singapore
398,West,Boon Lay,True,False,True,7336AGP,360 Clinic (Boon Lay),221,Boon Lay Pl,#01-226,,,88605970,8.30am - 1.00pm 5.00pm - 8.30pm,8.30am - 2.00pm,Closed,Closed,,221 Boon Lay Pl #01-226,Singapore
399,West,Boon Lay,False,False,False,1296AGP,Community Medical Clinic,221,Boon Lay Place,#02-160,Boon Lay Shopping Centre,,62610672,8.30am - 11.30am 1.30pm - 3.30pm 5.30pm - 7.30pm,8.30am - 11.30am,8.30am - 11.30am,Closed,,221 Boon Lay Place #02-160 Boon Lay Shopping Centre,Singapore
400,West,Boon Lay,True,True,True,1580AGP,Healthway Medical (Jurong West Central),690,Jurong West Central 1,#01-193,,,67921812 67915719,8:30am - 12:30pm 2:00pm - 4:30pm 7:00pm - Midnight,8:30am - 12:30pm 7:00pm - Midnight,8:30am - 12:30pm 7:00pm - 11:00pm,8:30am - 12:30pm 7:00pm - 11:00pm,Clinic surcharge applicable,690 Jurong West Central 1 #01-193,Singapore
401,West,Boon Lay,True,True,True,1647AGP,Icon Medical Clinic,517,Jurong West Street 52,#01-101,,,65600521,8.30am - 1.45pm 6.00pm - 8.45pm,8.30am - 12.15pm,8.30am - 12.15pm,Closed,Clinic surcharge applicable,517 Jurong West Street 52 #01-101,Singapore
402,West,Boon Lay,False,False,True,7125AGP,Minmed Clinic (Boon Lay),221,Boon Lay Place,#01-108,Boon Lay Shopping Centre,,86060123,8.00am - 1.00pm 2.00pm - 5.00pm 6.00pm - 10.00pm,9.00am - 1.00pm,9.00am - 1.00pm,9.00am - 1.00pm 2.00pm - 5.00pm,Clinic surcharge applicable,221 Boon Lay Place #01-108 Boon Lay Shopping Centre,Singapore
403,West,Boon Lay,False,False,True,2204AGP,Minmed Clinic (Jurong West),1,Jurong West Central 2,#01-17E/F/G/H,Jurong Point,,80260123,7.00am - 10.00pm,7.00am - 10.00pm,7.00am - 10.00pm,9.00am - 1.00pm 2.00pm - 5.00pm,Clinic surcharge applicable,1 Jurong West Central 2 #01-17E/F/G/H Jurong Point,Singapore
404,West,Boon Lay,True,True,True,1925AGP,MyDoctor @ Lakeside,201,Boon Lay Way,#01-05,Lakeside MRT Station,,62657270,8.30am - 12.30pm 1.30pm - 8.30pm,8.30am - 12.30pm 1.30pm - 5.00pm,Closed,Closed,,201 Boon Lay Way #01-05 Lakeside MRT Station,Singapore
405,West,Boon Lay,False,False,False,2058AGP,Point Medical Group (Jurong Point),1,Jurong West Central 2,#B1A-20A,,,67922370,8.30am - 1.00pm 2.00pm - 6.00pm 6.30pm - 8.30pm,8.30am - 1.00pm,Closed,Closed,,1 Jurong West Central 2 #B1A-20A,Singapore
406,West,Boon Lay,True,False,True,2214AGP,Shine Family Clinic,463,Jurong West Street 41,#01-560,,,65637934,8.30am - 1.00pm 2.00pm - 5.00pm 7.00pm - 9.00pm (On Wed & Thurs only) 5.30pm - 8.30pm (On Tues only),Closed,Closed,Closed,,463 Jurong West Street 41 #01-560,Singapore
407,West,Bukit Batok,True,True,True,5222AGP,Chua Medical Clinic And Surgery,642,Bukit Batok Central,#01-52,,,69726948,"8.30am-6.00pm(Mon,Wed,Fri) 4.00pm-10.00pm(Tues,Thurs)",8.30am-6.00pm,Closed,Closed,,642 Bukit Batok Central #01-52,Singapore
408,West,Bukit Batok,True,True,True,5184AGP,DA Clinic @ Bukit Batok,451,Bukit Batok West,#01-02,,,3165 0143,8.30am-4.00pm 6.00pm-9.00pm,8.30am - 12.00pm,8.30am - 12.00pm,8.30am - 12.00pm,Clinic surcharge applicable,451 Bukit Batok West #01-02,Singapore
409,West,Bukit Batok,True,True,True,5199AGP,EH Medical Family Clinic (Bukit Batok),292,Bukit Batok East Ave 6,#01-07,,,62551368,8.00am - 1.00pm 2.00pm - 10.00pm,8.00am - 1.00pm 2.00pm - 6.00pm,8.00am - 1.00pm 2.00pm - 6.00pm,9.00am - 1.00pm 2.00pm - 6.00pm,,292 Bukit Batok East Ave 6 #01-07,Singapore
410,West,Bukit Batok,True,True,True,7257AGP,Erena Family Clinic,280,Bukit Batok East Ave 3,#01-317,,,66126925,"Mon, Tue & Thurs 8.00am - 2.00pm 6.00pm - 9.00pm Wed & Fri 8.00am - 2.00pm",8.00am - 12.00pm,Closed,Closed,,280 Bukit Batok East Ave 3 #01-317,Singapore
411,West,Bukit Batok,True,False,True,1469AGP,Frontier Medical Associates (BB West Terra),451,Bukit Batok Avenue 6,#01-07,,,62583035,8.00am - 2.30pm 6.00pm -9.30pm (Evening session on Monday & Wed),8.00am - 1.00pm,Closed,Closed,,451 Bukit Batok Avenue 6 #01-07,Singapore
412,West,Bukit Batok,True,True,True,5140AGP,Healthway Medical (Bukit Batok West),446,Bukit Batok West Ave 8,#01-03,,,62565980,"Mon, Tues, Thur 9.00am – 1.00pm 2.00pm – 5.00pm 6.00pm – 9.00pm Wed, Fri 9.00am – 1.00pm 2.00pm – 5.00pm",9.00am – 1.00pm,Closed,Closed,,446 Bukit Batok West Ave 8 #01-03,Singapore
413,West,Bukit Batok,True,True,True,4080AGP,HeartlandHealth Bukit Batok,164,Bukit Batok Street 11,#01-152,,,68732458,8.00am - 1.00pm 6.00pm - 11.00pm,8.00am - 1.00pm 6.00pm - 11.00pm,8.00am - 1.00pm 6.00pm - 11.00pm,8.00am - 1.00pm 6.00pm - 11.00pm,,164 Bukit Batok Street 11 #01-152,Singapore
414,West,Bukit Batok,True,True,True,1086AGP,Hisemainn Medical Clinic (Bukit Batok),289E,Bukit Batok St 25,#01-160,,,65691375,8.30am - 3.00pm 6.30pm - 9.30pm,8.30am - 1.00pm,Closed,Closed,,289E Bukit Batok St 25 #01-160,Singapore
415,West,Bukit Batok,True,True,True,4769AGP,Q & M Medical Clinic (Bukit Batok),151,Bukit Batok Street 11,#01-252,,,65653866,8.30am - 12.30pm 2.00pm - 5.00pm 6.30pm - 9.30pm,8.30am - 12.30pm,Closed,Closed,,151 Bukit Batok Street 11 #01-252,Singapore
416,West,Bukit Batok,False,False,True,2258AGP,Starcare Clinic & Surgery,207,Bukit Batok Street 21,#01-108,,,65616878,"Mon, Tue, Thur & Fri 8.30am - 12.30pm 7.30pm - 9.00pm Wed 8.30am - 12.00pm",8.30am - 12.00pm,Closed,Closed,,207 Bukit Batok Street 21 #01-108,Singapore
417,West,Bukit Batok,True,False,True,2440AGP,Universal Medical Clinic ( Bukit Batok),164,Bukit Batok West Street 11,#01-144,,,65639955 / 65630718,8.30am - 2.00pm (Closed on Wed),8.30am - 12.30pm,Closed,Closed,,164 Bukit Batok West Street 11 #01-144,Singapore
418,West,Bukit Panjang,True,False,True,1826AGP,Healthcare Medical @ Railmall,446,Upper Bukit Timah Road,,Rail Mall,,67655733,8.30am - 12.30pm 2.00pm - 4.30pm 6.30pm - 9.00pm (Closed on Fri pm & night),8.30am - 12.30pm,9.30am - 12.30pm,Closed,,446 Upper Bukit Timah Road Rail Mall,Singapore
419,West,Bukit Panjang,False,False,True,7244AGP,Healthway Medical (Bukit Panjang Plaza),1,Jelebu Road,#01-62,Bukit Panjang Plaza,,60165035,"Mon & Thurs 8.00am - 1.00pm 2.00pm - 5.00pm 6.00pm - 9.00pm Tue, Wed & Fri 8.00am - 1.00pm 2.00pm - 5.00pm",8.00am - 1.00pm,Closed,Closed,,1 Jelebu Road #01-62 Bukit Panjang Plaza,Singapore
420,West,Bukit Panjang,True,True,True,1594AGP,Healthway Medical (Fajar),445,Fajar Road,#02-534,Fajar Shopping Centre,,67690600,"Mon & Wed 8.30am - 12.30pm 2.00pm - 4.30pm 6.00pm - 8.00pm Tue, Thurs & Fri 8.30am - 12.30pm 2.00pm - 4.30pm",8.30am - 12.30pm,Closed,Closed,Clinic surcharge applicable,445 Fajar Road #02-534 Fajar Shopping Centre,Singapore
421,West,Bukit Panjang,False,False,False,7337AGP,Minmed Clinic (Bukit Panjang),1,Jelebu Rd,#01-05,,,89490123,9.00am - 1.00pm 2.00pm - 5.00pm 6.00pm - 9.00pm,9.00am - 1.00pm,9.00am - 1.00pm,Closed,Clinic surcharge applicable,1 Jelebu Rd #01-05,Singapore
422,West,Bukit Panjang,True,True,True,4113AGP,My Family Clinic (Segar),485,Segar Road,#01-508,,,67107269,8.00am - 1.00pm 2.00pm - 5.00pm 6.00pm - 9.00pm (closed on fri),Closed,8.00am - 1.00pm,Closed,Clinic surcharge applicable,485 Segar Road #01-508,Singapore
423,West,Bukit Panjang,True,True,True,5215AGP,My Family Clinic (Senja),628,Senja Road,#01-04,,,63140638,8.00am - 2.00pm 6.00pm - 10.00pm,8.00am - 12.00pm,8.00am - 12.00pm,Closed,Clinic surcharge applicable,628 Senja Road #01-04,Singapore
424,West,Bukit Panjang,True,True,True,7271AGP,Petir Family Clinic,9,Gangsa Road,#01-151,,,65139155,Mon-Thurs 8.00am - 1.30pm 2.00pm - 5.00pm 6.00pm - 9.00pm Fri 8.00am - 1.30pm 2.00pm - 5.00pm,8.00am - 12.30pm,8.00am - 12.30pm,Closed,Clinic surcharge applicable,9 Gangsa Road #01-151,Singapore
425,West,Bukit Panjang,True,True,True,7242AGP,Pinnacle Family Clinic (Dairy Farm),4,Dairy Farm Lane,#B1-07,Dairy Farm Mall,,65135087,"Mon, Wed & Thurs 8.30am - 3.30pm 5.30pm - 8.30pm Tue & Fri 8.30am - 3.30pm",9.00am - 1.00pm,Closed,Closed,,4 Dairy Farm Lane #B1-07 Dairy Farm Mall,Singapore
426,West,Buona Vista,True,True,True,1325AGP,Dover Medical Centre,1,Fusionopolis Way,#03-05,Connexis,,67756266,8.30am - 12.30pm 1.15pm - 5.30pm,Closed,Closed,Closed,,1 Fusionopolis Way #03-05 Connexis,Singapore
427,West,Choa Chu Kang,True,True,True,7175AGP,Central 24-HR Clinic (Choa Chu Kang),304,Choa Chu Kang Ave 4,#01-651,,,62779261,24 Hours,24 Hours,24 Hours,24 Hours,Clinic surcharge applicable,304 Choa Chu Kang Ave 4 #01-651,Singapore
428,West,Choa Chu Kang,True,False,True,1292AGP,Clinical Associates Medical Centre,137,Teck Whye Lane,#01-313,,,67624180,8.30am - 12.30pm 2.00pm - 5.00pm 7.00pm - 9.00pm,8.30am - 12.30pm,8.30am - 12.30pm,Closed,,137 Teck Whye Lane #01-313,Singapore
429,West,Choa Chu Kang,True,False,True,1531AGP,Harmony Family Clinic,235,Choa Chu Kang Central,#B1-25,,,67623979,9.00am - 12.30pm 2.00pm - 4.30pm,9.00am - 12.30pm,Closed,Closed,,235 Choa Chu Kang Central #B1-25,Singapore
430,West,Choa Chu Kang,True,True,True,1577AGP,Healthway Medical (Limbang),533,Choa Chu Kang Street 51,#02-07,Limbang Shopping Centre,,67622555,Mon-Thur 8.30am - 1.00pm 2.00pm - 5.00pm 6.00pm - 9.00pm Fri 8.30am - 1.00pm 2.00pm - 5.00pm,8.30am - 1.00pm,8.30am - 1.00pm,8.30am - 1.00pm,Clinic surcharge applicable,533 Choa Chu Kang Street 51 #02-07 Limbang Shopping Centre,Singapore
431,West,Choa Chu Kang,True,True,True,1597AGP,Healthway Medical (Sunshine Place),475,Choa Chu Kang Ave 3,#02-03,Sunshine Place,,68926330,9.00am - 3.00pm 6.30pm - 9.30pm,9.00am - 1.00pm,9.00am - 1.00pm,9.00am - 1.00pm,Clinic surcharge applicable,475 Choa Chu Kang Ave 3 #02-03 Sunshine Place,Singapore
432,West,Choa Chu Kang,True,True,True,4264AGP,Healthwerkz Medical Centre (CCK),225,Choa Chu Kang Central,#01-199,,,67662827,8.00am - 1.00pm 6.00pm - 9.00pm,8.30am - 12.30pm,Closed,Closed,,225 Choa Chu Kang Central #01-199,Singapore
433,West,Choa Chu Kang,True,False,False,7300AGP,Life Vista Medical Clinic (Mrt),15,Choa Chu Kang Ave 4,#01-01,CCK LRT,,65184842,8.00am - 10.00pm,8.00am - 10.00pm,8.00am - 10.00pm,Closed Closed 1pm on CNY Eve,Clinic surcharge applicable,15 Choa Chu Kang Ave 4 #01-01 CCK LRT,Singapore
434,West,Choa Chu Kang,False,False,False,7318AGP,MyDoctor @ Choa Chu Kang,10,Choa Chu Kang Ave 4,#01-04,Choa Chu Kang MRT Station,,65303686,Mon - Fri 8.30am - 12.30pm 6.00pm - 9.00pm,8.30am - 12.30pm,8.30am - 12.30pm,Closed,Clinic surcharge applicable,10 Choa Chu Kang Ave 4 #01-04 Choa Chu Kang MRT Station,Singapore
435,West,Choa Chu Kang,True,True,True,5344AGP,Pinnacle Family Clinic (Yew Tee),790,Choa Chu Kang,#01-238,,,62357893,"Mon, Wed & Fri 8.00am - 1.00pm 2.00pm - 5.00pm 6.00pm - 9.00pm Tue & Thurs 8.00am - 1.00pm 2.00pm - 5.00pm",9.00am-1.00pm,Closed,Closed,,790 Choa Chu Kang #01-238,Singapore
436,West,Choa Chu Kang,True,False,True,5100AGP,Royal Care Medical Family Clinic (CCK),818,Choa Chu Kang Ave 1,#01-13,,,67608784,8.30am - 1.00pm 6.00pm - 10.00pm,Closed,Closed,Closed,,818 Choa Chu Kang Ave 1 #01-13,Singapore
437,West,Clementi,True,True,True,5165AGP,Central 24-HR Clinic (Clementi),450,Clementi Ave 3,#01-291,,,67732925,24 Hours,24 Hours,24 Hours,24 Hours,Clinic surcharge applicable,450 Clementi Ave 3 #01-291,Singapore
438,West,Clementi,False,False,True,4259AGP,Clementi Family & Aesthetic Clinic Pte Ltd,321,Clementi Avenue 3,#01-14/15,321 Clementi,,67766177,8.00am - 10.00pm,8.00am - 10.00pm,8.00am - 10.00pm,8.00am - 6.00pm,Clinic surcharge applicable,321 Clementi Avenue 3 #01-14/15 321 Clementi,Singapore
439,West,Clementi,True,True,True,5130AGP,Frontier Family Medicine Clinic (Clementi),3151,Commonwealth Avenue West,#04-01,Grantral Mall @ Clementi,,67788362,8.00am - 1.00pm 2.00pm - 5.30pm,8.30am - 1.00pm,Closed,Closed,,3151 Commonwealth Avenue West #04-01 Grantral Mall @ Clementi,Singapore
440,West,Clementi,True,True,True,7210AGP,Love and Joy Family Clinic,105,Clementi Street 12,#01-24,,,63203830,8.30am - 1.00pm 5.30pm - 8.30pm,9.00am - 1.00pm,9.00am - 1.00pm,9.00am - 1.00pm,Clinic surcharge applicable,105 Clementi Street 12 #01-24,Singapore
441,West,Clementi,False,False,True,5768AGP,Minmed Clinic (Clementi),3155,Commonwealth Avenue West,#04-07,The Clementi Mall,,87280123,9.00am - 1.00pm 2.00pm - 5.00pm 6.00pm - 9.00pm,9.00am - 1.00pm,9.00am - 1.00pm,9.00am - 1.00pm 2.00pm - 5.00pm,Clinic surcharge applicable,3155 Commonwealth Avenue West #04-07 The Clementi Mall,Singapore
442,West,Clementi,True,True,True,5220AGP,My Family Clinic (Clementi 325),325,Clementi Avenue 5,#01-139,,,67784608,Mon - Thurs 8.00am - 1.00pm 2.00pm - 5.00pm 6.00pm - 9.00pm Fri 8.00am - 1.00pm 2.00pm - 5.00pm,8.00am - 12.00pm,Closed,Closed,Clinic surcharge applicable,325 Clementi Avenue 5 #01-139,Singapore
443,West,Clementi,True,False,True,1943AGP,National Clinic,352,Clementi Ave 2,#01-119,,,67760127,8.30am - 12.30pm 2.00pm - 4.30pm 7.00pm - 9.00pm (Closed on Thurs night),8.30am - 12.30pm,8.30am - 12.30pm,Closed,,352 Clementi Ave 2 #01-119,Singapore
444,West,Clementi,True,True,True,7243AGP,Pinnacle Family Clinic (Clementi),209A,Clementi Avenue 6,#01-06,,,65138718,"Mon, Wed & Thurs 8.30am - 3.30pm 5.30pm - 8.30pm Tue & Fri 8.30am - 3.30pm",9.00am - 1.00pm,Closed,Closed,,209A Clementi Avenue 6 #01-06,Singapore
445,West,Clementi,True,True,True,7202AGP,Singmedical Clinic Clementi,446,Clementi ave 3,#01-185,,,65183533,9.00am - 12.30pm 5.00pm - 9.00pm,9.00am - 12.30pm 2.00pm - 4.00pm 5.00pm - 9.00pm,9.00am - 12.30pm 2.00pm - 4.00pm 5.00pm - 9.00pm,Closed,,446 Clementi ave 3 #01-185,Singapore
446,West,Dover,False,False,False,1324AGP,Dover Clinic & Surgery,28,Dover Crescent,#01-89,,,67757410,Mon - Fri: 8.30am - 12.30pm 2.00pm - 5.00pm,9.00am - 1.00pm,Closed,Closed,,28 Dover Crescent #01-89,Singapore
447,West,Jurong East,True,True,True,4788AGP,Drs Bain & Partners (IBP),2,International Business Park,#01-06A/07A,The Strategy,,63162648,8.30am - 1.00pm 2.00pm - 5.00pm,9.00am - 12.45pm,Closed,Closed,Clinic surcharge applicable,2 International Business Park #01-06A/07A The Strategy,Singapore
448,West,Jurong East,True,True,True,1386AGP,E J Tan Clinic & Surgery,104,Jurong East Street 13,#01-100,,,65606600,8.30pm - 12.30pm 2.00pm - 4.00pm 7.00pm - 9.30pm,8.30pm - 12.30pm 7.00pm - 9.00pm,Closed,Closed,Clinic surcharge applicable,104 Jurong East Street 13 #01-100,Singapore
449,West,Jurong East,False,False,True,5655AGP,Medico Clinic & Surgery,249,Jurong East Street 24,#01-88,,,65610934,Mon - Thur 9.00am - 1.00pm 2.00pm - 4.30pm Fri 9.00am - 1.00pm,9.00am - 1.00pm,Closed,Closed,,249 Jurong East Street 24 #01-88,Singapore
450,West,Jurong East,True,True,True,4824AGP,Minmed Clinic (Jurong East),50,Jurong Gateway Road,#04-17,JEM,,87520123,9.00am - 1.00pm 2.00pm - 5.00pm 6.00pm - 9.00pm,9.00am - 1.00pm,9.00am - 1.00pm,9.00am - 1.00pm 2.00pm - 5.00pm,Clinic surcharge applicable,50 Jurong Gateway Road #04-17 JEM,Singapore
451,West,Jurong East,True,False,True,2322AGP,Teban Garden Clinic,61,Teban Gardens Road,#01-01,,,65619052,9.00am - 12.30pm 2.00pm - 5.00pm 6.30pm - 8.30pm,9.00am -12.30pm,Closed,9.00am - 12.30pm,,61 Teban Gardens Road #01-01,Singapore
452,West,Jurong West,True,True,True,5169AGP,Central 24-HR Clinic (Jurong West),492,Jurong West Street 41,#01-54,,,65657484,24 Hours,24 Hours,24 Hours,24 Hours,Clinic surcharge applicable,492 Jurong West Street 41 #01-54,Singapore
453,West,Jurong West,True,True,True,5170AGP,Central 24-HR Clinic (Pioneer North),959,Jurong West Street 92,#01-160,,,62512775,24 Hours,24 hours,24 hours,24 hours,Clinic surcharge applicable,959 Jurong West Street 92 #01-160,Singapore
454,West,Jurong West,True,True,True,2747AGP,DA Clinic @ Taman Jurong,140,Corporation Drive,#01-03,,,3165 0145,8.30am-4.00pm 6.00pm-9.00pm,8.30am - 12.00pm,8.30am-12.00pm 6.00pm-9.00pm,8.30am-12.00pm 6.00pm-9.00pm,Clinic surcharge applicable,140 Corporation Drive #01-03,Singapore
455,West,Jurong West,True,False,True,5116AGP,Dr Chua's Family Clinic,638,Jurong West Street 61,#02-04,Pioneer Mall,,67928505,8.00am - 3.00pm 6.30pm - 9.30pm (Closed on Fri),8.00am - 1.00pm,5.00pm - 9.30pm,Closed,Clinic surcharge applicable,638 Jurong West Street 61 #02-04 Pioneer Mall,Singapore
456,West,Jurong West,True,False,True,1471AGP,Frontier Medical Associates (Jurong West),678D,Jurong West Street 64,#01-347,,,68622340,8.30am - 3.00pm 6.00pm - 9.30pm (No evening session on Fri(=),8.30am - 1.00pm,Closed,Closed,,678D Jurong West Street 64 #01-347,Singapore
457,West,Jurong West,True,False,True,1602AGP,Healthway Medical (Jurong West),960,Jurong West St 92,#01-166,,,67915680,8.30am - 12.30pm 2.00pm - 4.30pm 6.30pm - 9.00pm (Closed on Fri night),8.30am - 12.30pm,8.30am - 12.30pm,8.30am - 12.30pm,Clinic surcharge applicable,960 Jurong West St 92 #01-166,Singapore
458,West,Jurong West,True,True,True,3432AGP,HeartlandHealth Jurong West,463,Jurong West St 41,#01-564,,,68732420,8.00am - 1.00pm 6.00pm - 11.00pm,8.00am - 1.00pm 6.00pm - 11.00pm,8.00am - 1.00pm 6.00pm - 11.00pm,8.00am - 1.00pm 6.00pm - 11.00pm,,463 Jurong West St 41 #01-564,Singapore
459,West,Jurong West,True,True,True,5210AGP,IDOC Clinic (Hong Kah),502,Jurong West Avenue 1,#01-813,,,69099516,8.30am - 1.00pm 2.00pm - 5.00pm 6.00pm - 9.30pm,8.30am - 1.00pm 6.30pm - 9.30pm,8.30am - 1.00pm 6.30pm - 9.30pm,Closed,Clinic surcharge applicable,502 Jurong West Avenue 1 #01-813,Singapore
460,West,Jurong West,True,False,False,7307AGP,Pinnacle Family Clinic (Pioneer MRT),31,Jurong West Street 63,#02-01,,,65142313,"Mon, Wed & Thur 8.00am - 1.00pm 2.00pm - 4.30pm 6.00pm - 9.00pm Tue & Fri 8.00am - 1.00pm 2.00pm - 4.30pm",9.00am - 1.00pm,Closed,Closed,,31 Jurong West Street 63 #02-01,Singapore
461,West,Jurong West,True,True,True,4722AGP,Tayka Medical Family Clinic,526,Jurong West Street 52,#01-323,,,65645528,9.00am - 12.00pm 2.00pm - 4.00pm 7.00pm - 9.00pm,9.00am - 12.00pm,Closed,Closed,,526 Jurong West Street 52 #01-323,Singapore
462,West,Jurong West,True,False,True,7313AGP,The Clinic Group @ Westgate,3,Gateway Dr,#04-25,Westgate,,62504012,8.30am - 1.00pm 2.00pm - 5.30pm,Closed,Closed,Closed,,3 Gateway Dr #04-25 Westgate,Singapore
463,West,Kent Ridge,True,True,True,7253AGP,Normanton Medical Clinic,63,Normanton Park,#01-87,,,65135239,Mon-Thurs 9.00am - 2.00pm 6.00pm - 9.00pm Fri 9.00am - 2.00pm,Closed,9.00am - 12.30pm,Closed,Clinic surcharge applicable,63 Normanton Park #01-87,Singapore
464,West,Tengah,True,False,False,7319AGP,Pinnacle Family Clinic (Tengah),235B,Tengah Garden Walk,#01-334,,,65143038,Mon 8.00am - 1.00pm 2.00pm - 4.00pm 6.00pm - 9.00pm Tue & Thu 8.00am - 1.00pm 2.00pm - 3.30pm 6.00pm - 9.00pm Wed & Fri 8.00am - 1.00pm 2.00pm - 3.30pm,9.00am - 1.00pm,Closed,Closed,,235B Tengah Garden Walk #01-334,Singapore
465,West,Upper Bukit Timah,False,False,False,1268AGP,Chungkiaw Clinic,68,Jalan Jurong Kechil,#01-01,Suites @ Bukit Timah,,64662255,8.45am - 12.00pm 2.00pm - 4.00pm (Closed on Thurs pm),Closed,8.45am - 12.00pm,Closed,,68 Jalan Jurong Kechil #01-01 Suites @ Bukit Timah,Singapore
466,West,Upper Bukit Timah,True,True,True,5015AGP,My Clinic,9,King Albert Park,#01-50,KAP,,66108335,9.00am - 1.00pm 2.30pm - 5.00pm,9.00am - 1.00pm,Closed,Closed,,9 King Albert Park #01-50 KAP,Singapore
467,West,Upper Bukit Timah,False,False,False,1939AGP,Nam Seng Clinic,144,Upper Bukit Timah Road,#01-22,Beauty World Centre,,64620082,9.00am - 2.00 pm 4.00 pm - 6.00pm 8.00pm - 10.00pm,9.00 am - 2.00 pm 4.00 pm - 6.00 pm 8.00 pm - 10.00 pm,9.00 am - 3.00pm,9.00 am - 3.00pm,,144 Upper Bukit Timah Road #01-22 Beauty World Centre,Singapore
468,West,West Coast,True,True,True,7203AGP,Claremont Medical Clinic,3,Jln Mas Puteh,#01-01,,,69808565,8.30am - 8.30pm,8.30am - 12.30pm,8.30am - 12.30pm,Closed,,3 Jln Mas Puteh #01-01,Singapore
469,West,West Coast,True,False,True,7290AGP,Healthway Medical (722 West Coast),722,Clementi West Street 2,#01-162,,,67770183,Mon 8.30am - 12.00pm 2.00pm - 4.00pm 6.45am - 8.30pm Tue to Fri 8.30am - 12.00pm 2.00pm - 4.30pm,8.30am - 12.00pm,Closed,Closed,,722 Clementi West Street 2 #01-162,Singapore
470,West,west Coast,True,False,True,7338AGP,Holistic Clinic & Surgery,501,W Coast Dr,#01-284,,,67767723,9.00am - 9.00pm,9.00am - 9.00pm,9.00am - 9.00pm,9.00am - 9.00pm,Clinic surcharge applicable,501 W Coast Dr #01-284,Singapore
471,West,West Coast,False,False,False,1845AGP,L'Ving Vine Medical & Wellness Clinic,154,West Coast Road,#01-84/85,West Coast Plaza,,67777442,10.30am - 2.00pm 6.30pm - 9.30pm (Closed on Wed night and Thurs Whole Day),10.30am - 2.00pm,Closed,Closed,,154 West Coast Road #01-84/85 West Coast Plaza,Singapore
472,West,West Coast,True,True,True,4268AGP,MyHealth Medical Centre,501,West Coast Drive,#01-256,,,68726920,8.30am - 1.00pm 2.00pm - 5.30pm,8.30am - 1.00pm,8.30am - 1.00pm,Closed,,501 West Coast Drive #01-256,Singapore
473,West,West Coast,True,True,True,7249AGP,Our West Coast Family Clinic,801,West Coast Crescent,#01-03,,,63203862,8.00am - 2.00pm 6.00pm - 9.00pm,2.00pm - 6.00pm,8.00am - 1.00pm 6.00pm - 9.00pm,Closed,Clinic surcharge applicable,801 West Coast Crescent #01-03,Singapore
474,West,West Coast,True,False,False,2429AGP,Union Clinic And Surgery,722,Clementi West Street 2,#01-168,,,67770783,9.00am - 12.30pm 2.00pm - 4.30pm 6.30pm - 9.00pm,9.00am - 12.30pm,9.00am - 12.30pm,Closed,,722 Clementi West Street 2 #01-168,Singapore
475,West,west Coast,True,False,True,2302AGP,Viva Medical Group (Westside),154,West Coast Road,#01-81,West Coast Plaza,,67779069,8.30am - 12.30pm 2.00pm - 4.30pm,8.30am - 12.30pm,9.00am - 12.00pm,Closed,,154 West Coast Road #01-81 West Coast Plaza,Singapore
476,Northeast,Ang Mo Kio,True,False,True,7339AGP,Beacon Clinic & Surgery,531,Ang Mo Kio Ave 10,#01-2447,,,69700802,9.00am - 9.00pm,9.00am - 9.00pm,9.00am - 9.00pm,9.00am - 9.00pm,Clinic surcharge applicable,531 Ang Mo Kio Ave 10 #01-2447,Singapore
477,East,Tampines,False,False,False,7340AGP,Prima Care Family Clinic (T. North),477,Tampines Street 43,#01-176,,,62983739,8.30am - 5.30pm,8.30am - 1.00pm,Closed,Closed,,477 Tampines Street 43 #01-176,Singapore
478,East,Tampines,True,False,False,7341AGP,I-Health Medical Clinic (Greengem),954C,Tampines St. 96,#01-01,,,69085165,8.30am - 3.00pm 5.30pm - 10.00pm,8.30am -1.00pm 5.30pm - 10.00pm,8.30am - 3.00pm 5.30pm - 10.00pm,8.30am - 3.00pm,Clinic surcharge applicable,954C Tampines St. 96 #01-01,Singapore
479,West,Upper Bukit Timah,False,False,False,7344AGP,Our Bukit Timah Family Clinic,896,Dunearn Rd,#03-04,Dunearn Village,,89773287,9.00am - 3.00pm 5.30pm - 9.00pm,9.00am - 1.00pm,5.30am - 9.00pm,Closed,Clinic surcharge applicable,896 Dunearn Rd #03-04 Dunearn Village,Singapore
480,West,Boon Lay,False,False,False,7345AGP,Our Jurong West Family Clinic,216,Boon Lay Ave,#01-03,,,89773550,Mon - Thur 8.00am - 1.30pm 5.30pm - 9.00pm Fri 8.00am - 1.30pm,9.00am - 1.00pm,2.00pm - 5.00pm,Closed,Clinic surcharge applicable,216 Boon Lay Ave #01-03,Singapore
481,Central,Telok Blangah,False,False,False,7346AGP,Telok Blangah Family Clinic,88A,Telok Blangah Heights,#01-01,,,89117494,Mon - Thur 8.30am - 1.30pm 2.00pm - 5.00pm 6.00pm - 9.00pm Fri 8.30am - 1.30pm 2.00pm - 5.00pm,8.30am - 12.30pm,8.30am - 12.30pm,Closed,Clinic surcharge applicable,88A Telok Blangah Heights #01-01,Singapore
482,West,Jurong East,True,False,True,7347AGP,Ultimed Clinic (Jurong East 31),318,Jurong East Street 31,#01-46,,,63486784,8.30am - 1.00pm 2.00pm - 5.30pm,8.30am - 1.00pm,Closed,Closed,,318 Jurong East Street 31 #01-46,Singapore
483,West,Jurong East,True,False,True,7348AGP,Best Care Clinic,214,Jurong East Street 21,#01-433,,,66002234,8.00am - 8.00pm,8.30am - 12.30pm,4.00pm - 8.00pm,Closed,Clinic surcharge applicable,214 Jurong East Street 21 #01-433,Singapore
484,Central,Balestier,True,False,True,7349AGP,Frontier Medical (Towner Road),150,Towner Rd,#02-04,,,69915516,"Mon & Wed 8.30am - 3.00pm 6.00pm - 9.00pm Tue, Thur & Fri 8.30am - 3.00pm",8.30am - 1.00pm,Closed,Closed,,150 Towner Rd #02-04,Singapore
